; Handwriting-Robot G-code -- yeukita
; author=yeukita strokes=69 scale=1.000
; steps/mm  X=80.000  Y=80.000 (3200 microsteps/rev)
; pen: one-way gear motor, M5=up M3=down, each = one 90deg pulse
G21   ; millimetres
G90   ; absolute
G0 F2400
G0 X10.331 Y169.868
M3   ; pen DOWN (one 90deg pulse of the one-way gear motor)
G4 P0.350   ; wait for the 90deg rotation to finish
G1 F900
G1 X10.683 Y169.889
G1 X11.031 Y169.947
G1 X11.364 Y170.061
G1 X11.672 Y170.232
G1 X11.943 Y170.456
G1 X12.196 Y170.702
G1 X12.455 Y170.943
G1 X12.671 Y171.220
G1 X12.866 Y171.515
G1 X13.001 Y171.836
G1 X13.024 Y172.188
G1 X13.039 Y172.540
G1 X13.166 Y172.868
G1 X13.296 Y173.195
G1 X13.354 Y173.543
G1 X13.333 Y173.893
G1 X13.253 Y174.237
G1 X13.176 Y174.581
G1 X13.128 Y174.931
G1 X13.121 Y175.284
G1 X13.217 Y175.621
G1 X13.376 Y175.936
G1 X13.463 Y176.277
G1 X13.447 Y176.629
G1 X13.394 Y176.978
G1 X13.329 Y177.325
G1 X13.266 Y177.672
G1 X13.206 Y178.020
G1 X13.145 Y178.368
G1 X13.068 Y178.713
G1 X12.998 Y179.059
M5   ; pen UP (one 90deg pulse of the one-way gear motor)
G4 P0.350   ; wait for the 90deg rotation to finish
G0 X13.789 Y179.874
M3   ; pen DOWN (one 90deg pulse of the one-way gear motor)
G4 P0.350   ; wait for the 90deg rotation to finish
G1 F900
G1 X13.632 Y179.558
G1 X13.462 Y179.253
G1 X13.162 Y179.099
G1 X12.812 Y179.072
G1 X12.460 Y179.077
G1 X12.107 Y179.083
G1 X11.755 Y179.069
G1 X11.407 Y179.014
G1 X11.068 Y178.918
G1 X10.732 Y178.809
G1 X10.415 Y178.656
G1 X10.170 Y178.408
G1 X10.049 Y178.081
G1 X10.005 Y177.732
G1 X10.000 Y177.380
G1 X10.010 Y177.028
G1 X10.035 Y176.676
G1 X10.099 Y176.331
G1 X10.250 Y176.015
G1 X10.537 Y175.811
G1 X10.878 Y175.722
G1 X11.229 Y175.694
G1 X11.582 Y175.679
G1 X11.934 Y175.668
G1 X12.286 Y175.656
G1 X12.639 Y175.644
G1 X12.991 Y175.632
M5   ; pen UP (one 90deg pulse of the one-way gear motor)
G4 P0.350   ; wait for the 90deg rotation to finish
G0 X17.432 Y178.083
M3   ; pen DOWN (one 90deg pulse of the one-way gear motor)
G4 P0.350   ; wait for the 90deg rotation to finish
G1 F900
G1 X17.102 Y177.983
G1 X16.790 Y177.837
G1 X16.561 Y177.588
G1 X16.469 Y177.259
G1 X16.446 Y176.915
G1 X16.452 Y176.571
G1 X16.528 Y176.236
G1 X16.572 Y175.894
G1 X16.659 Y175.561
G1 X16.762 Y175.232
G1 X16.947 Y174.949
G1 X17.260 Y174.818
G1 X17.598 Y174.855
G1 X17.930 Y174.949
G1 X18.245 Y175.084
G1 X18.478 Y175.333
G1 X18.676 Y175.615
G1 X18.852 Y175.909
G1 X18.946 Y176.240
G1 X19.021 Y176.577
M5   ; pen UP (one 90deg pulse of the one-way gear motor)
G4 P0.350   ; wait for the 90deg rotation to finish
G0 X18.780 Y177.649
M3   ; pen DOWN (one 90deg pulse of the one-way gear motor)
G4 P0.350   ; wait for the 90deg rotation to finish
G1 F900
G1 X18.640 Y177.875
G1 X18.501 Y178.102
M5   ; pen UP (one 90deg pulse of the one-way gear motor)
G4 P0.350   ; wait for the 90deg rotation to finish
G0 X19.941 Y177.305
M3   ; pen DOWN (one 90deg pulse of the one-way gear motor)
G4 P0.350   ; wait for the 90deg rotation to finish
G1 F900
G1 X19.868 Y176.961
G1 X19.780 Y176.620
G1 X19.645 Y176.295
G1 X19.595 Y175.947
G1 X19.582 Y175.595
G1 X19.596 Y175.243
G1 X19.688 Y174.904
G1 X19.837 Y174.585
G1 X20.070 Y174.328
G1 X20.405 Y174.238
G1 X20.757 Y174.229
G1 X21.104 Y174.281
G1 X21.429 Y174.414
G1 X21.710 Y174.622
G1 X21.878 Y174.926
G1 X21.969 Y175.266
G1 X22.084 Y175.599
G1 X22.164 Y175.941
G1 X22.183 Y176.293
G1 X22.187 Y176.645
G1 X22.122 Y176.989
G1 X21.945 Y177.291
G1 X21.686 Y177.528
G1 X21.364 Y177.662
G1 X21.015 Y177.707
M5   ; pen UP (one 90deg pulse of the one-way gear motor)
G4 P0.350   ; wait for the 90deg rotation to finish
G0 X26.055 Y176.775
M3   ; pen DOWN (one 90deg pulse of the one-way gear motor)
G4 P0.350   ; wait for the 90deg rotation to finish
G1 F900
G1 X25.705 Y176.814
G1 X25.362 Y176.894
G1 X25.011 Y176.924
G1 X24.659 Y176.915
G1 X24.328 Y176.806
G1 X24.069 Y176.572
G1 X23.876 Y176.278
G1 X23.753 Y175.949
G1 X23.709 Y175.600
G1 X23.705 Y175.248
G1 X23.731 Y174.897
G1 X23.819 Y174.556
G1 X24.009 Y174.264
G1 X24.340 Y174.169
G1 X24.692 Y174.178
G1 X25.027 Y174.279
G1 X25.345 Y174.428
G1 X25.688 Y174.507
G1 X26.036 Y174.563
M5   ; pen UP (one 90deg pulse of the one-way gear motor)
G4 P0.350   ; wait for the 90deg rotation to finish
G0 X26.578 Y174.054
M3   ; pen DOWN (one 90deg pulse of the one-way gear motor)
G4 P0.350   ; wait for the 90deg rotation to finish
G1 F900
G1 X26.289 Y174.239
G1 X26.105 Y174.525
G1 X26.051 Y174.865
G1 X26.060 Y175.211
G1 X26.073 Y175.557
G1 X26.084 Y175.903
G1 X26.096 Y176.249
G1 X26.108 Y176.594
G1 X26.121 Y176.940
G1 X26.134 Y177.286
G1 X26.145 Y177.632
G1 X26.156 Y177.978
G1 X26.170 Y178.324
G1 X26.184 Y178.669
G1 X26.198 Y179.015
G1 X26.212 Y179.361
M5   ; pen UP (one 90deg pulse of the one-way gear motor)
G4 P0.350   ; wait for the 90deg rotation to finish
G0 X31.081 Y177.188
M3   ; pen DOWN (one 90deg pulse of the one-way gear motor)
G4 P0.350   ; wait for the 90deg rotation to finish
G1 F900
G1 X31.081 Y176.841
G1 X31.148 Y176.503
G1 X31.273 Y176.179
G1 X31.306 Y175.835
G1 X31.301 Y175.488
G1 X31.297 Y175.141
G1 X31.340 Y174.797
G1 X31.404 Y174.456
M5   ; pen UP (one 90deg pulse of the one-way gear motor)
G4 P0.350   ; wait for the 90deg rotation to finish
G0 X32.717 Y174.323
M3   ; pen DOWN (one 90deg pulse of the one-way gear motor)
G4 P0.350   ; wait for the 90deg rotation to finish
G1 F900
G1 X32.725 Y174.659
G1 X32.733 Y174.995
G1 X32.742 Y175.330
G1 X32.735 Y175.666
G1 X32.680 Y175.997
G1 X32.643 Y176.330
G1 X32.645 Y176.666
M5   ; pen UP (one 90deg pulse of the one-way gear motor)
G4 P0.350   ; wait for the 90deg rotation to finish
G0 X31.321 Y176.275
M3   ; pen DOWN (one 90deg pulse of the one-way gear motor)
G4 P0.350   ; wait for the 90deg rotation to finish
G1 F900
G1 X31.596 Y176.494
G1 X31.893 Y176.679
G1 X32.239 Y176.698
G1 X32.589 Y176.682
G1 X32.923 Y176.781
G1 X33.212 Y176.982
G1 X33.553 Y177.048
G1 X33.883 Y176.947
G1 X34.113 Y176.688
G1 X34.250 Y176.365
G1 X34.320 Y176.021
G1 X34.346 Y175.671
G1 X34.411 Y175.325
G1 X34.431 Y174.975
G1 X34.325 Y174.643
G1 X34.574 Y174.510
G1 X34.914 Y174.418
G1 X35.253 Y174.326
G1 X35.593 Y174.234
G1 X35.934 Y174.147
G1 X36.271 Y174.201
G1 X36.606 Y174.307
G1 X36.941 Y174.413
G1 X37.277 Y174.519
G1 X37.612 Y174.625
G1 X37.739 Y174.887
G1 X37.747 Y175.238
G1 X37.754 Y175.590
G1 X37.761 Y175.942
G1 X37.768 Y176.293
G1 X37.775 Y176.645
G1 X37.765 Y176.996
G1 X37.679 Y177.335
G1 X37.487 Y177.630
G1 X37.240 Y177.877
G1 X36.913 Y177.988
G1 X36.561 Y178.003
G1 X36.212 Y177.968
G1 X35.907 Y177.810
G1 X35.742 Y177.506
G1 X35.702 Y177.157
G1 X35.685 Y176.806
G1 X35.616 Y176.461
G1 X35.546 Y176.117
G1 X35.524 Y175.766
G1 X35.517 Y175.414
G1 X35.525 Y175.063
G1 X35.606 Y174.722
G1 X35.794 Y174.432
G1 X36.119 Y174.315
G1 X36.469 Y174.325
G1 X36.811 Y174.403
G1 X37.144 Y174.515
G1 X37.480 Y174.619
G1 X37.829 Y174.657
G1 X38.181 Y174.655
M5   ; pen UP (one 90deg pulse of the one-way gear motor)
G4 P0.350   ; wait for the 90deg rotation to finish
G0 X39.244 Y175.145
M3   ; pen DOWN (one 90deg pulse of the one-way gear motor)
G4 P0.350   ; wait for the 90deg rotation to finish
G1 F900
G1 X39.234 Y175.499
G1 X39.224 Y175.853
G1 X39.214 Y176.207
G1 X39.232 Y176.560
G1 X39.336 Y176.897
G1 X39.443 Y177.235
G1 X39.635 Y177.528
G1 X39.926 Y177.727
G1 X40.245 Y177.881
G1 X40.569 Y178.024
G1 X40.897 Y178.157
G1 X41.243 Y178.228
M5   ; pen UP (one 90deg pulse of the one-way gear motor)
G4 P0.350   ; wait for the 90deg rotation to finish
G0 X41.894 Y175.418
M3   ; pen DOWN (one 90deg pulse of the one-way gear motor)
G4 P0.350   ; wait for the 90deg rotation to finish
G1 F900
G1 X41.922 Y175.768
G1 X41.999 Y176.110
G1 X42.034 Y176.460
G1 X42.034 Y176.811
G1 X42.042 Y177.163
G1 X42.121 Y177.504
G1 X42.226 Y177.839
G1 X42.301 Y178.182
G1 X42.459 Y178.494
G1 X42.720 Y178.723
G1 X43.056 Y178.780
G1 X43.371 Y178.631
G1 X43.625 Y178.390
G1 X43.790 Y178.083
G1 X43.891 Y177.746
G1 X43.971 Y177.404
G1 X44.044 Y177.060
G1 X44.070 Y176.710
G1 X44.073 Y176.358
G1 X44.058 Y176.007
G1 X43.994 Y175.662
G1 X43.934 Y175.317
G1 X44.270 Y175.213
G1 X44.606 Y175.109
G1 X44.942 Y175.005
G1 X45.271 Y175.120
G1 X45.565 Y175.312
G1 X45.860 Y175.505
G1 X46.154 Y175.697
G1 X46.488 Y175.598
G1 X46.837 Y175.562
G1 X47.188 Y175.553
G1 X47.538 Y175.521
G1 X47.881 Y175.446
G1 X48.229 Y175.457
G1 X48.408 Y175.730
G1 X48.358 Y176.078
G1 X48.312 Y176.426
G1 X48.202 Y176.758
G1 X48.033 Y177.067
G1 X47.893 Y177.389
G1 X47.836 Y177.733
G1 X47.951 Y178.054
G1 X48.218 Y178.281
M5   ; pen UP (one 90deg pulse of the one-way gear motor)
G4 P0.350   ; wait for the 90deg rotation to finish
G0 X46.178 Y177.481
M3   ; pen DOWN (one 90deg pulse of the one-way gear motor)
G4 P0.350   ; wait for the 90deg rotation to finish
G1 F900
G1 X46.174 Y177.127
G1 X46.171 Y176.774
G1 X46.167 Y176.421
G1 X46.162 Y176.068
G1 X46.131 Y175.717
G1 X46.060 Y175.371
G1 X46.016 Y175.022
M5   ; pen UP (one 90deg pulse of the one-way gear motor)
G4 P0.350   ; wait for the 90deg rotation to finish
G0 X49.104 Y175.376
M3   ; pen DOWN (one 90deg pulse of the one-way gear motor)
G4 P0.350   ; wait for the 90deg rotation to finish
G1 F900
G1 X49.150 Y175.726
G1 X49.247 Y176.065
G1 X49.291 Y176.415
G1 X49.302 Y176.768
G1 X49.339 Y177.119
G1 X49.466 Y177.448
G1 X49.575 Y177.784
G1 X49.702 Y178.111
G1 X49.938 Y178.370
G1 X50.259 Y178.504
G1 X50.602 Y178.455
G1 X50.896 Y178.259
G1 X51.124 Y177.993
G1 X51.255 Y177.665
G1 X51.340 Y177.323
G1 X51.418 Y176.978
G1 X51.455 Y176.627
G1 X51.450 Y176.273
G1 X51.426 Y175.921
G1 X51.350 Y175.576
G1 X51.265 Y175.234
G1 X51.563 Y175.062
G1 X51.876 Y174.898
G1 X52.189 Y174.734
G1 X52.503 Y174.572
G1 X52.849 Y174.529
G1 X53.181 Y174.649
G1 X53.514 Y174.769
G1 X53.846 Y174.889
G1 X54.051 Y174.986
G1 X53.697 Y174.981
G1 X53.344 Y174.977
G1 X52.992 Y174.996
G1 X52.699 Y175.168
G1 X52.594 Y175.503
G1 X52.565 Y175.855
G1 X52.566 Y176.208
G1 X52.700 Y176.529
G1 X52.993 Y176.720
G1 X53.323 Y176.844
G1 X53.673 Y176.888
G1 X54.026 Y176.900
G1 X54.300 Y177.084
G1 X54.415 Y177.418
M5   ; pen UP (one 90deg pulse of the one-way gear motor)
G4 P0.350   ; wait for the 90deg rotation to finish
G0 X54.037 Y176.893
M3   ; pen DOWN (one 90deg pulse of the one-way gear motor)
G4 P0.350   ; wait for the 90deg rotation to finish
G1 F900
G1 X54.109 Y176.555
G1 X54.180 Y176.216
G1 X54.253 Y175.878
G1 X54.322 Y175.539
G1 X54.313 Y175.197
G1 X54.199 Y174.872
G1 X54.217 Y174.529
G1 X54.296 Y174.193
G1 X54.349 Y173.853
G1 X54.278 Y173.517
G1 X54.215 Y173.182
G1 X54.187 Y172.841
G1 X54.025 Y172.536
G1 X53.801 Y172.273
G1 X53.559 Y172.028
G1 X53.253 Y171.873
G1 X52.913 Y171.816
M5   ; pen UP (one 90deg pulse of the one-way gear motor)
G4 P0.350   ; wait for the 90deg rotation to finish
G0 X56.307 Y174.638
M3   ; pen DOWN (one 90deg pulse of the one-way gear motor)
G4 P0.350   ; wait for the 90deg rotation to finish
G1 F900
G1 X56.508 Y174.399
M5   ; pen UP (one 90deg pulse of the one-way gear motor)
G4 P0.350   ; wait for the 90deg rotation to finish
G0 X60.763 Y174.391
M3   ; pen DOWN (one 90deg pulse of the one-way gear motor)
G4 P0.350   ; wait for the 90deg rotation to finish
G1 F900
G1 X60.762 Y174.752
G1 X60.762 Y175.113
G1 X60.761 Y175.474
G1 X60.761 Y175.835
G1 X60.760 Y176.196
G1 X60.759 Y176.557
G1 X60.759 Y176.918
G1 X60.758 Y177.279
G1 X60.757 Y177.641
G1 X60.757 Y178.002
M5   ; pen UP (one 90deg pulse of the one-way gear motor)
G4 P0.350   ; wait for the 90deg rotation to finish
G0 X60.755 Y179.018
M3   ; pen DOWN (one 90deg pulse of the one-way gear motor)
G4 P0.350   ; wait for the 90deg rotation to finish
G1 F900
G1 X60.755 Y179.141
M5   ; pen UP (one 90deg pulse of the one-way gear motor)
G4 P0.350   ; wait for the 90deg rotation to finish
G0 X64.759 Y179.577
M3   ; pen DOWN (one 90deg pulse of the one-way gear motor)
G4 P0.350   ; wait for the 90deg rotation to finish
G1 F900
G1 X64.757 Y179.230
G1 X64.786 Y178.884
G1 X64.879 Y178.550
G1 X64.910 Y178.205
G1 X64.955 Y177.862
G1 X65.035 Y177.525
G1 X65.049 Y177.180
G1 X64.980 Y176.840
G1 X64.908 Y176.501
G1 X64.894 Y176.155
G1 X64.892 Y175.808
G1 X64.890 Y175.461
G1 X64.888 Y175.114
G1 X64.886 Y174.767
M5   ; pen UP (one 90deg pulse of the one-way gear motor)
G4 P0.350   ; wait for the 90deg rotation to finish
G0 X67.082 Y174.753
M3   ; pen DOWN (one 90deg pulse of the one-way gear motor)
G4 P0.350   ; wait for the 90deg rotation to finish
G1 F900
G1 X67.227 Y175.093
G1 X67.247 Y175.466
G1 X67.351 Y175.818
G1 X67.561 Y176.126
M5   ; pen UP (one 90deg pulse of the one-way gear motor)
G4 P0.350   ; wait for the 90deg rotation to finish
G0 X65.061 Y177.670
M3   ; pen DOWN (one 90deg pulse of the one-way gear motor)
G4 P0.350   ; wait for the 90deg rotation to finish
G1 F900
G1 X65.411 Y177.668
G1 X65.762 Y177.666
G1 X66.112 Y177.660
G1 X66.459 Y177.615
G1 X66.742 Y177.427
G1 X66.900 Y177.116
G1 X67.050 Y176.800
G1 X67.174 Y176.474
G1 X67.415 Y176.224
G1 X67.668 Y175.988
G1 X67.882 Y175.710
G1 X68.096 Y175.433
G1 X68.310 Y175.155
G1 X68.525 Y174.878
G1 X68.739 Y174.600
G1 X68.953 Y174.323
G1 X69.266 Y174.220
G1 X69.604 Y174.303
G1 X69.942 Y174.398
G1 X70.279 Y174.492
G1 X70.601 Y174.599
G1 X70.598 Y174.949
G1 X70.596 Y175.300
G1 X70.594 Y175.651
G1 X70.591 Y176.001
G1 X70.589 Y176.352
G1 X70.584 Y176.702
G1 X70.529 Y177.046
G1 X70.372 Y177.358
G1 X70.143 Y177.622
G1 X69.841 Y177.788
G1 X69.493 Y177.815
G1 X69.144 Y177.797
G1 X68.817 Y177.681
G1 X68.612 Y177.408
G1 X68.550 Y177.065
G1 X68.546 Y176.714
G1 X68.502 Y176.367
G1 X68.430 Y176.024
G1 X68.411 Y175.675
G1 X68.412 Y175.324
G1 X68.422 Y174.974
G1 X68.502 Y174.634
G1 X68.675 Y174.336
G1 X68.992 Y174.205
G1 X69.340 Y174.212
G1 X69.680 Y174.297
G1 X70.009 Y174.414
G1 X70.341 Y174.528
G1 X70.686 Y174.578
G1 X71.037 Y174.586
M5   ; pen UP (one 90deg pulse of the one-way gear motor)
G4 P0.350   ; wait for the 90deg rotation to finish
G0 X71.986 Y174.855
M3   ; pen DOWN (one 90deg pulse of the one-way gear motor)
G4 P0.350   ; wait for the 90deg rotation to finish
G1 F900
G1 X72.337 Y174.830
G1 X72.678 Y174.748
G1 X73.007 Y174.621
G1 X73.344 Y174.525
G1 X73.694 Y174.510
G1 X74.013 Y174.644
G1 X74.234 Y174.913
G1 X74.376 Y175.234
G1 X74.527 Y175.552
G1 X74.640 Y175.884
G1 X74.677 Y176.234
G1 X74.639 Y176.583
G1 X74.560 Y176.926
G1 X74.440 Y177.254
G1 X74.223 Y177.530
G1 X73.942 Y177.737
G1 X73.607 Y177.841
G1 X73.258 Y177.853
G1 X72.916 Y177.773
G1 X72.612 Y177.601
G1 X72.374 Y177.344
G1 X72.223 Y177.027
G1 X72.116 Y176.692
G1 X72.077 Y176.343
G1 X72.072 Y175.992
G1 X72.069 Y175.640
G1 X72.063 Y175.288
G1 X72.058 Y174.936
G1 X72.054 Y174.584
G1 X72.051 Y174.232
G1 X72.047 Y173.880
G1 X72.044 Y173.528
G1 X72.040 Y173.177
G1 X72.037 Y172.825
M5   ; pen UP (one 90deg pulse of the one-way gear motor)
G4 P0.350   ; wait for the 90deg rotation to finish
G0 X75.615 Y175.003
M3   ; pen DOWN (one 90deg pulse of the one-way gear motor)
G4 P0.350   ; wait for the 90deg rotation to finish
G1 F900
G1 X75.769 Y175.146
M5   ; pen UP (one 90deg pulse of the one-way gear motor)
G4 P0.350   ; wait for the 90deg rotation to finish
G0 X75.615 Y175.003
M3   ; pen DOWN (one 90deg pulse of the one-way gear motor)
G4 P0.350   ; wait for the 90deg rotation to finish
G1 F900
G1 X75.858 Y175.248
G1 X76.174 Y175.391
G1 X76.484 Y175.545
G1 X76.750 Y175.768
G1 X76.997 Y176.014
G1 X77.182 Y176.306
G1 X77.247 Y176.644
G1 X77.175 Y176.980
G1 X76.991 Y177.273
G1 X76.736 Y177.508
G1 X76.425 Y177.655
G1 X76.090 Y177.584
G1 X75.841 Y177.354
G1 X75.737 Y177.025
G1 X75.682 Y176.682
G1 X75.629 Y176.338
G1 X75.575 Y175.994
G1 X75.529 Y175.650
G1 X75.557 Y175.307
G1 X75.701 Y174.991
G1 X75.839 Y174.672
G1 X76.028 Y174.382
G1 X76.304 Y174.182
G1 X76.649 Y174.155
G1 X76.996 Y174.174
G1 X77.343 Y174.195
G1 X77.690 Y174.218
G1 X78.037 Y174.241
M5   ; pen UP (one 90deg pulse of the one-way gear motor)
G4 P0.350   ; wait for the 90deg rotation to finish
G0 X81.478 Y176.886
M3   ; pen DOWN (one 90deg pulse of the one-way gear motor)
G4 P0.350   ; wait for the 90deg rotation to finish
G1 F900
G1 X81.830 Y176.887
G1 X82.182 Y176.888
G1 X82.535 Y176.890
G1 X82.887 Y176.891
G1 X83.239 Y176.896
G1 X83.587 Y176.935
G1 X83.931 Y177.012
G1 X84.268 Y176.969
G1 X84.599 Y176.849
G1 X84.946 Y176.799
G1 X85.289 Y176.871
G1 X85.627 Y176.963
G1 X85.935 Y177.132
G1 X86.270 Y177.239
G1 X86.617 Y177.292
G1 X86.968 Y177.320
G1 X87.301 Y177.236
G1 X87.517 Y176.966
G1 X87.649 Y176.640
G1 X87.755 Y176.307
G1 X87.752 Y175.955
G1 X87.733 Y175.603
G1 X87.712 Y175.252
G1 X87.965 Y175.027
G1 X88.246 Y174.815
G1 X88.527 Y174.604
G1 X88.809 Y174.392
G1 X89.090 Y174.180
G1 X89.371 Y173.968
G1 X89.694 Y173.958
G1 X90.035 Y174.044
G1 X90.376 Y174.133
G1 X90.717 Y174.222
G1 X91.058 Y174.310
G1 X90.713 Y174.214
G1 X90.362 Y174.188
G1 X90.014 Y174.142
G1 X89.665 Y174.170
G1 X89.375 Y174.358
G1 X89.259 Y174.685
G1 X89.173 Y175.026
G1 X89.088 Y175.368
G1 X89.077 Y175.719
G1 X89.135 Y176.065
G1 X89.234 Y176.403
G1 X89.323 Y176.743
G1 X89.527 Y177.020
G1 X89.857 Y177.092
G1 X90.186 Y176.975
G1 X90.426 Y176.721
G1 X90.675 Y176.473
G1 X90.940 Y176.242
G1 X91.118 Y175.945
G1 X91.163 Y175.596
G1 X91.181 Y175.245
G1 X91.199 Y174.893
G1 X91.229 Y174.543
G1 X91.325 Y174.206
G1 X91.517 Y173.916
G1 X91.850 Y173.812
M5   ; pen UP (one 90deg pulse of the one-way gear motor)
G4 P0.350   ; wait for the 90deg rotation to finish
G0 X92.731 Y176.780
M3   ; pen DOWN (one 90deg pulse of the one-way gear motor)
G4 P0.350   ; wait for the 90deg rotation to finish
G1 F900
G1 X93.086 Y176.809
G1 X93.442 Y176.837
G1 X93.797 Y176.865
G1 X94.153 Y176.893
G1 X94.509 Y176.921
G1 X94.864 Y176.950
G1 X95.220 Y176.978
M5   ; pen UP (one 90deg pulse of the one-way gear motor)
G4 P0.350   ; wait for the 90deg rotation to finish
G0 X93.781 Y178.953
M3   ; pen DOWN (one 90deg pulse of the one-way gear motor)
G4 P0.350   ; wait for the 90deg rotation to finish
G1 F900
G1 X93.788 Y178.612
G1 X93.794 Y178.272
G1 X93.800 Y177.931
G1 X93.806 Y177.591
G1 X93.812 Y177.250
G1 X93.819 Y176.910
G1 X93.825 Y176.569
G1 X93.831 Y176.228
G1 X93.837 Y175.888
G1 X93.843 Y175.547
G1 X93.850 Y175.207
G1 X93.856 Y174.866
G1 X93.866 Y174.526
G1 X93.965 Y174.206
G1 X94.252 Y174.053
G1 X94.592 Y174.038
G1 X94.933 Y174.044
G1 X95.273 Y174.050
M5   ; pen UP (one 90deg pulse of the one-way gear motor)
G4 P0.350   ; wait for the 90deg rotation to finish
G0 X99.503 Y175.131
M3   ; pen DOWN (one 90deg pulse of the one-way gear motor)
G4 P0.350   ; wait for the 90deg rotation to finish
G1 F900
G1 X99.778 Y175.127
M5   ; pen UP (one 90deg pulse of the one-way gear motor)
G4 P0.350   ; wait for the 90deg rotation to finish
G0 X100.070 Y175.968
M3   ; pen DOWN (one 90deg pulse of the one-way gear motor)
G4 P0.350   ; wait for the 90deg rotation to finish
G1 F900
G1 X100.417 Y175.926
G1 X100.757 Y175.843
G1 X101.105 Y175.812
G1 X101.454 Y175.837
G1 X101.760 Y175.997
G1 X101.956 Y176.280
G1 X102.010 Y176.624
G1 X101.953 Y176.968
G1 X101.806 Y177.285
G1 X101.576 Y177.541
G1 X101.241 Y177.630
G1 X100.896 Y177.590
G1 X100.591 Y177.419
G1 X100.309 Y177.213
G1 X100.111 Y176.928
G1 X100.002 Y176.597
G1 X100.005 Y176.247
G1 X99.963 Y175.903
G1 X99.864 Y175.568
G1 X99.848 Y175.220
G1 X99.905 Y174.875
G1 X99.975 Y174.532
G1 X100.171 Y174.248
G1 X100.499 Y174.143
G1 X100.849 Y174.142
G1 X101.188 Y174.224
G1 X101.497 Y174.388
G1 X101.815 Y174.529
G1 X102.146 Y174.432
G1 X102.477 Y174.317
G1 X102.808 Y174.201
G1 X102.944 Y174.493
G1 X103.055 Y174.825
G1 X103.166 Y175.157
G1 X103.277 Y175.490
G1 X103.389 Y175.822
G1 X103.500 Y176.154
G1 X103.611 Y176.486
G1 X103.722 Y176.819
G1 X103.833 Y177.151
G1 X103.863 Y176.844
G1 X103.946 Y176.504
G1 X103.968 Y176.156
G1 X104.020 Y175.811
G1 X104.127 Y175.477
G1 X104.182 Y175.132
G1 X104.263 Y174.792
G1 X104.478 Y174.520
G1 X104.774 Y174.339
G1 X105.119 Y174.318
G1 X105.425 Y174.479
G1 X105.639 Y174.633
G1 X105.805 Y174.324
G1 X106.010 Y174.049
G1 X106.322 Y174.031
G1 X106.592 Y174.237
G1 X106.908 Y174.381
G1 X107.255 Y174.397
G1 X107.602 Y174.352
G1 X107.952 Y174.341
G1 X108.303 Y174.345
G1 X108.637 Y174.440
G1 X108.920 Y174.643
G1 X109.130 Y174.921
M5   ; pen UP (one 90deg pulse of the one-way gear motor)
G4 P0.350   ; wait for the 90deg rotation to finish
G0 X107.029 Y174.502
M3   ; pen DOWN (one 90deg pulse of the one-way gear motor)
G4 P0.350   ; wait for the 90deg rotation to finish
G1 F900
G1 X107.012 Y174.843
G1 X106.995 Y175.184
G1 X106.978 Y175.526
G1 X106.962 Y175.867
G1 X106.945 Y176.208
G1 X106.928 Y176.550
G1 X106.911 Y176.891
M5   ; pen UP (one 90deg pulse of the one-way gear motor)
G4 P0.350   ; wait for the 90deg rotation to finish
G0 X106.911 Y176.891
M3   ; pen DOWN (one 90deg pulse of the one-way gear motor)
G4 P0.350   ; wait for the 90deg rotation to finish
G1 F900
G1 X107.161 Y177.119
G1 X107.472 Y177.262
G1 X107.772 Y177.426
G1 X108.076 Y177.578
G1 X108.415 Y177.615
M5   ; pen UP (one 90deg pulse of the one-way gear motor)
G4 P0.350   ; wait for the 90deg rotation to finish
G0 X105.831 Y177.167
M3   ; pen DOWN (one 90deg pulse of the one-way gear motor)
G4 P0.350   ; wait for the 90deg rotation to finish
G1 F900
G1 X105.822 Y176.858
G1 X105.813 Y176.549
M5   ; pen UP (one 90deg pulse of the one-way gear motor)
G4 P0.350   ; wait for the 90deg rotation to finish
G0 X111.084 Y173.868
M3   ; pen DOWN (one 90deg pulse of the one-way gear motor)
G4 P0.350   ; wait for the 90deg rotation to finish
G1 F900
G1 X111.106 Y174.212
G1 X111.124 Y174.557
G1 X111.146 Y174.901
G1 X111.168 Y175.245
G1 X111.191 Y175.589
G1 X111.210 Y175.933
G1 X111.258 Y176.274
G1 X111.448 Y176.555
G1 X111.727 Y176.756
G1 X112.021 Y176.938
G1 X112.330 Y177.085
G1 X112.670 Y177.122
G1 X113.009 Y177.061
G1 X113.347 Y176.990
M5   ; pen UP (one 90deg pulse of the one-way gear motor)
G4 P0.350   ; wait for the 90deg rotation to finish
G0 X114.089 Y176.156
M3   ; pen DOWN (one 90deg pulse of the one-way gear motor)
G4 P0.350   ; wait for the 90deg rotation to finish
G1 F900
G1 X114.102 Y175.808
G1 X114.119 Y175.460
G1 X114.132 Y175.112
G1 X114.148 Y174.764
G1 X114.162 Y174.416
G1 X114.175 Y174.068
G1 X114.222 Y173.724
G1 X114.372 Y173.412
G1 X114.670 Y173.248
G1 X115.016 Y173.216
G1 X115.364 Y173.208
G1 X115.712 Y173.201
M5   ; pen UP (one 90deg pulse of the one-way gear motor)
G4 P0.350   ; wait for the 90deg rotation to finish
G0 X113.999 Y171.531
M3   ; pen DOWN (one 90deg pulse of the one-way gear motor)
G4 P0.350   ; wait for the 90deg rotation to finish
G1 F900
G1 X114.334 Y171.418
G1 X114.677 Y171.338
G1 X115.029 Y171.316
G1 X115.373 Y171.381
G1 X115.609 Y171.637
G1 X115.736 Y171.966
G1 X115.848 Y172.294
G1 X115.856 Y172.647
G1 X115.839 Y172.999
G1 X115.765 Y173.339
G1 X115.868 Y173.675
G1 X115.883 Y174.028
G1 X115.890 Y174.381
G1 X115.908 Y174.733
G1 X116.000 Y175.073
G1 X116.060 Y175.421
G1 X116.114 Y175.769
G1 X116.205 Y176.110
G1 X116.422 Y176.197
G1 X116.765 Y176.118
G1 X117.064 Y176.252
G1 X117.341 Y176.471
G1 X117.375 Y176.269
G1 X117.311 Y175.922
G1 X117.199 Y175.587
G1 X117.155 Y175.239
G1 X117.160 Y174.886
G1 X117.190 Y174.534
G1 X117.300 Y174.200
G1 X117.469 Y173.890
G1 X117.724 Y173.654
G1 X118.073 Y173.613
G1 X118.425 Y173.635
G1 X118.763 Y173.731
G1 X119.064 Y173.914
G1 X119.288 Y174.179
G1 X119.382 Y174.519
G1 X119.465 Y174.862
G1 X119.549 Y175.204
G1 X119.567 Y175.556
G1 X119.557 Y175.909
G1 X119.501 Y176.256
G1 X119.336 Y176.566
G1 X119.074 Y176.800
G1 X118.752 Y176.935
G1 X118.401 Y176.965
M5   ; pen UP (one 90deg pulse of the one-way gear motor)
G4 P0.350   ; wait for the 90deg rotation to finish
G0 X120.380 Y174.754
M3   ; pen DOWN (one 90deg pulse of the one-way gear motor)
G4 P0.350   ; wait for the 90deg rotation to finish
G1 F900
G1 X120.433 Y175.097
G1 X120.536 Y175.427
G1 X120.597 Y175.768
G1 X120.623 Y176.113
G1 X120.656 Y176.458
G1 X120.755 Y176.789
G1 X120.888 Y177.108
G1 X120.989 Y177.440
G1 X121.160 Y177.738
G1 X121.425 Y177.956
G1 X121.760 Y178.024
G1 X122.072 Y177.882
G1 X122.327 Y177.649
G1 X122.501 Y177.352
G1 X122.590 Y177.017
G1 X122.651 Y176.676
G1 X122.708 Y176.334
G1 X122.726 Y175.988
G1 X122.708 Y175.642
G1 X122.676 Y175.297
G1 X122.603 Y174.959
G1 X122.506 Y174.626
G1 X122.596 Y174.315
G1 X122.776 Y174.018
G1 X123.043 Y173.821
G1 X123.361 Y173.922
G1 X123.617 Y174.147
G1 X123.937 Y174.274
G1 X124.281 Y174.275
G1 X124.625 Y174.233
G1 X124.971 Y174.225
G1 X125.318 Y174.234
G1 X125.647 Y174.334
G1 X125.923 Y174.539
G1 X126.129 Y174.816
M5   ; pen UP (one 90deg pulse of the one-way gear motor)
G4 P0.350   ; wait for the 90deg rotation to finish
G0 X124.013 Y174.387
M3   ; pen DOWN (one 90deg pulse of the one-way gear motor)
G4 P0.350   ; wait for the 90deg rotation to finish
G1 F900
G1 X123.995 Y174.734
G1 X123.978 Y175.080
G1 X123.960 Y175.426
G1 X123.943 Y175.773
G1 X123.926 Y176.119
G1 X123.908 Y176.466
G1 X123.891 Y176.812
M5   ; pen UP (one 90deg pulse of the one-way gear motor)
G4 P0.350   ; wait for the 90deg rotation to finish
G0 X123.891 Y176.812
M3   ; pen DOWN (one 90deg pulse of the one-way gear motor)
G4 P0.350   ; wait for the 90deg rotation to finish
G1 F900
G1 X124.142 Y177.043
G1 X124.455 Y177.189
G1 X124.757 Y177.356
G1 X125.063 Y177.511
G1 X125.405 Y177.550
M5   ; pen UP (one 90deg pulse of the one-way gear motor)
G4 P0.350   ; wait for the 90deg rotation to finish
G0 X130.466 Y176.824
M3   ; pen DOWN (one 90deg pulse of the one-way gear motor)
G4 P0.350   ; wait for the 90deg rotation to finish
G1 F900
G1 X130.459 Y176.470
G1 X130.452 Y176.116
G1 X130.445 Y175.763
G1 X130.437 Y175.409
G1 X130.402 Y175.058
G1 X130.329 Y174.712
G1 X130.282 Y174.362
M5   ; pen UP (one 90deg pulse of the one-way gear motor)
G4 P0.350   ; wait for the 90deg rotation to finish
G0 X130.431 Y175.041
M3   ; pen DOWN (one 90deg pulse of the one-way gear motor)
G4 P0.350   ; wait for the 90deg rotation to finish
G1 F900
G1 X130.762 Y174.932
G1 X131.109 Y174.895
G1 X131.458 Y174.882
G1 X131.805 Y174.842
G1 X132.146 Y174.766
G1 X132.490 Y174.785
G1 X132.632 Y175.082
G1 X132.586 Y175.428
G1 X132.544 Y175.775
G1 X132.433 Y176.105
G1 X132.271 Y176.414
G1 X132.142 Y176.738
G1 X132.095 Y177.083
G1 X132.225 Y177.396
G1 X132.477 Y177.584
G1 X132.511 Y177.236
G1 X132.544 Y176.888
G1 X132.577 Y176.540
G1 X132.610 Y176.192
G1 X132.643 Y175.844
G1 X132.677 Y175.496
G1 X132.710 Y175.148
G1 X132.743 Y174.800
G1 X132.776 Y174.452
G1 X132.809 Y174.104
G1 X132.891 Y173.765
G1 X133.201 Y173.912
G1 X133.538 Y173.836
G1 X133.883 Y173.783
G1 X134.232 Y173.787
G1 X134.573 Y173.858
G1 X134.816 Y174.034
G1 X134.886 Y174.375
G1 X134.910 Y174.723
G1 X134.825 Y175.062
G1 X134.718 Y175.394
G1 X134.601 Y175.724
G1 X134.430 Y176.028
G1 X134.340 Y176.363
G1 X134.346 Y176.711
G1 X134.420 Y177.034
G1 X134.647 Y177.293
M5   ; pen UP (one 90deg pulse of the one-way gear motor)
G4 P0.350   ; wait for the 90deg rotation to finish
G0 X142.073 Y178.657
M3   ; pen DOWN (one 90deg pulse of the one-way gear motor)
G4 P0.350   ; wait for the 90deg rotation to finish
G1 F900
G1 X141.719 Y178.653
G1 X141.368 Y178.603
G1 X141.035 Y178.484
G1 X140.715 Y178.332
G1 X140.444 Y178.108
G1 X140.262 Y177.805
G1 X140.165 Y177.464
G1 X140.118 Y177.113
G1 X140.078 Y176.761
G1 X140.084 Y176.407
G1 X140.160 Y176.061
G1 X140.262 Y175.723
G1 X140.489 Y175.453
G1 X140.803 Y175.301
G1 X141.155 Y175.268
G1 X141.510 Y175.282
G1 X141.857 Y175.351
G1 X142.205 Y175.416
M5   ; pen UP (one 90deg pulse of the one-way gear motor)
G4 P0.350   ; wait for the 90deg rotation to finish
G0 X142.514 Y174.947
M3   ; pen DOWN (one 90deg pulse of the one-way gear motor)
G4 P0.350   ; wait for the 90deg rotation to finish
G1 F900
G1 X142.395 Y175.265
G1 X142.245 Y175.570
G1 X142.209 Y175.909
G1 X142.212 Y176.251
G1 X142.215 Y176.594
G1 X142.218 Y176.936
G1 X142.220 Y177.278
G1 X142.223 Y177.621
G1 X142.226 Y177.963
G1 X142.214 Y178.305
G1 X142.181 Y178.645
G1 X142.219 Y178.985
G1 X142.230 Y179.327
G1 X142.183 Y179.666
G1 X142.242 Y180.000
M5   ; pen UP (one 90deg pulse of the one-way gear motor)
G4 P0.350   ; wait for the 90deg rotation to finish
G0 X144.627 Y177.354
M3   ; pen DOWN (one 90deg pulse of the one-way gear motor)
G4 P0.350   ; wait for the 90deg rotation to finish
G1 F900
G1 X144.292 Y177.248
G1 X143.974 Y177.095
G1 X143.753 Y176.829
G1 X143.674 Y176.489
G1 X143.655 Y176.137
G1 X143.675 Y175.786
G1 X143.755 Y175.444
G1 X143.805 Y175.096
G1 X143.903 Y174.757
G1 X144.019 Y174.425
G1 X144.251 Y174.169
G1 X144.591 Y174.088
G1 X144.932 Y174.174
G1 X145.269 Y174.277
G1 X145.564 Y174.459
G1 X145.768 Y174.745
G1 X145.974 Y175.031
G1 X146.105 Y175.356
G1 X146.184 Y175.699
G1 X146.466 Y175.393
G1 X146.628 Y175.080
G1 X146.837 Y174.838
G1 X147.179 Y174.876
G1 X147.508 Y174.931
G1 X147.852 Y174.860
G1 X148.204 Y174.856
G1 X148.557 Y174.854
G1 X148.905 Y174.808
G1 X149.254 Y174.767
G1 X149.536 Y174.938
G1 X149.522 Y175.285
G1 X149.464 Y175.633
G1 X149.364 Y175.969
G1 X149.188 Y176.274
G1 X149.029 Y176.588
G1 X148.947 Y176.928
G1 X149.036 Y177.258
G1 X149.294 Y177.495
M5   ; pen UP (one 90deg pulse of the one-way gear motor)
G4 P0.350   ; wait for the 90deg rotation to finish
G0 X147.361 Y176.665
M3   ; pen DOWN (one 90deg pulse of the one-way gear motor)
G4 P0.350   ; wait for the 90deg rotation to finish
G1 F900
G1 X147.369 Y176.328
G1 X147.377 Y175.991
G1 X147.385 Y175.654
G1 X147.391 Y175.316
G1 X147.372 Y174.980
G1 X147.315 Y174.648
G1 X147.284 Y174.313
M5   ; pen UP (one 90deg pulse of the one-way gear motor)
G4 P0.350   ; wait for the 90deg rotation to finish
G0 X145.970 Y176.933
M3   ; pen DOWN (one 90deg pulse of the one-way gear motor)
G4 P0.350   ; wait for the 90deg rotation to finish
G1 F900
G1 X145.830 Y177.157
G1 X145.690 Y177.382
M5   ; pen UP (one 90deg pulse of the one-way gear motor)
G4 P0.350   ; wait for the 90deg rotation to finish
G0 X150.442 Y174.737
M3   ; pen DOWN (one 90deg pulse of the one-way gear motor)
G4 P0.350   ; wait for the 90deg rotation to finish
G1 F900
G1 X150.478 Y175.088
G1 X150.563 Y175.430
G1 X150.600 Y175.780
G1 X150.603 Y176.133
G1 X150.628 Y176.485
G1 X150.739 Y176.819
G1 X150.836 Y177.157
G1 X150.945 Y177.492
G1 X151.159 Y177.768
G1 X151.469 Y177.920
G1 X151.810 Y177.865
G1 X152.096 Y177.661
G1 X152.307 Y177.381
G1 X152.427 Y177.050
G1 X152.510 Y176.707
G1 X152.588 Y176.363
G1 X152.622 Y176.012
G1 X152.623 Y175.659
G1 X152.605 Y175.307
G1 X152.537 Y174.961
G1 X152.465 Y174.616
M5   ; pen UP (one 90deg pulse of the one-way gear motor)
G4 P0.350   ; wait for the 90deg rotation to finish
G0 X155.439 Y174.401
M3   ; pen DOWN (one 90deg pulse of the one-way gear motor)
G4 P0.350   ; wait for the 90deg rotation to finish
G1 F900
G1 X155.081 Y174.406
G1 X154.723 Y174.412
G1 X154.365 Y174.425
G1 X154.039 Y174.558
G1 X153.905 Y174.881
G1 X153.876 Y175.238
G1 X153.881 Y175.596
G1 X154.026 Y175.918
G1 X154.329 Y176.099
G1 X154.669 Y176.210
G1 X155.025 Y176.245
G1 X155.383 Y176.246
G1 X155.682 Y176.402
G1 X155.815 Y176.734
M5   ; pen UP (one 90deg pulse of the one-way gear motor)
G4 P0.350   ; wait for the 90deg rotation to finish
G0 X155.412 Y176.239
M3   ; pen DOWN (one 90deg pulse of the one-way gear motor)
G4 P0.350   ; wait for the 90deg rotation to finish
G1 F900
G1 X155.482 Y175.887
G1 X155.549 Y175.535
G1 X155.620 Y175.183
G1 X155.674 Y174.828
G1 X155.597 Y174.485
G1 X155.512 Y174.142
G1 X155.561 Y173.788
G1 X155.641 Y173.439
G1 X155.604 Y173.085
G1 X155.489 Y172.749
G1 X155.474 Y172.391
G1 X155.298 Y172.080
G1 X155.058 Y171.815
G1 X154.794 Y171.574
G1 X154.470 Y171.426
G1 X154.115 Y171.380
M5   ; pen UP (one 90deg pulse of the one-way gear motor)
G4 P0.350   ; wait for the 90deg rotation to finish
G0 X163.123 Y174.023
M3   ; pen DOWN (one 90deg pulse of the one-way gear motor)
G4 P0.350   ; wait for the 90deg rotation to finish
G1 F900
G1 X163.115 Y174.372
G1 X163.084 Y174.718
G1 X162.936 Y175.032
G1 X162.779 Y175.342
G1 X162.670 Y175.673
G1 X162.634 Y176.020
G1 X162.556 Y176.359
G1 X162.449 Y176.690
G1 X162.397 Y177.035
G1 X162.352 Y177.382
G1 X162.306 Y177.728
M5   ; pen UP (one 90deg pulse of the one-way gear motor)
G4 P0.350   ; wait for the 90deg rotation to finish
G0 X163.102 Y174.915
M3   ; pen DOWN (one 90deg pulse of the one-way gear motor)
G4 P0.350   ; wait for the 90deg rotation to finish
G1 F900
G1 X163.409 Y175.051
G1 X163.630 Y175.307
G1 X163.766 Y175.617
G1 X163.857 Y175.945
G1 X164.012 Y176.245
G1 X164.281 Y176.444
G1 X164.608 Y176.480
G1 X164.825 Y176.233
G1 X164.926 Y175.908
G1 X164.975 Y175.572
G1 X165.111 Y175.271
G1 X165.412 Y175.120
M5   ; pen UP (one 90deg pulse of the one-way gear motor)
G4 P0.350   ; wait for the 90deg rotation to finish
G0 X165.434 Y174.227
M3   ; pen DOWN (one 90deg pulse of the one-way gear motor)
G4 P0.350   ; wait for the 90deg rotation to finish
G1 F900
G1 X165.426 Y174.557
G1 X165.433 Y174.886
G1 X165.545 Y175.193
G1 X165.665 Y175.497
G1 X165.701 Y175.824
G1 X165.758 Y176.149
G1 X165.813 Y176.473
M5   ; pen UP (one 90deg pulse of the one-way gear motor)
G4 P0.350   ; wait for the 90deg rotation to finish
G0 X166.847 Y177.164
M3   ; pen DOWN (one 90deg pulse of the one-way gear motor)
G4 P0.350   ; wait for the 90deg rotation to finish
G1 F900
G1 X166.861 Y176.812
G1 X166.876 Y176.460
G1 X166.917 Y176.111
G1 X167.008 Y175.771
G1 X167.142 Y175.448
G1 X167.411 Y175.224
G1 X167.704 Y175.030
G1 X168.044 Y174.959
G1 X168.396 Y174.969
G1 X168.748 Y174.983
G1 X169.097 Y175.019
G1 X169.417 Y175.160
M5   ; pen UP (one 90deg pulse of the one-way gear motor)
G4 P0.350   ; wait for the 90deg rotation to finish
G0 X169.340 Y177.113
M3   ; pen DOWN (one 90deg pulse of the one-way gear motor)
G4 P0.350   ; wait for the 90deg rotation to finish
G1 F900
G1 X169.038 Y176.978
G1 X168.709 Y176.938
G1 X168.377 Y176.924
G1 X168.044 Y176.911
G1 X167.712 Y176.906
G1 X167.388 Y176.962
G1 X167.139 Y177.175
M5   ; pen UP (one 90deg pulse of the one-way gear motor)
G4 P0.350   ; wait for the 90deg rotation to finish
G0 X167.139 Y177.175
M3   ; pen DOWN (one 90deg pulse of the one-way gear motor)
G4 P0.350   ; wait for the 90deg rotation to finish
G1 F900
G1 X167.182 Y177.515
G1 X167.240 Y177.851
G1 X167.422 Y178.135
G1 X167.652 Y178.388
G1 X167.936 Y178.573
G1 X168.272 Y178.624
G1 X168.614 Y178.639
G1 X168.955 Y178.630
G1 X169.283 Y178.535
M5   ; pen UP (one 90deg pulse of the one-way gear motor)
G4 P0.350   ; wait for the 90deg rotation to finish
G0 X171.034 Y179.478
M3   ; pen DOWN (one 90deg pulse of the one-way gear motor)
G4 P0.350   ; wait for the 90deg rotation to finish
G1 F900
G1 X171.002 Y179.137
G1 X170.972 Y178.796
G1 X170.942 Y178.455
G1 X170.911 Y178.114
G1 X170.880 Y177.773
G1 X170.854 Y177.432
G1 X170.825 Y177.091
G1 X170.816 Y176.749
G1 X170.857 Y176.410
G1 X170.890 Y176.069
G1 X170.888 Y175.727
G1 X170.878 Y175.385
G1 X170.869 Y175.043
G1 X170.859 Y174.700
G1 X170.851 Y174.358
G1 X170.849 Y174.016
G1 X170.955 Y173.696
M5   ; pen UP (one 90deg pulse of the one-way gear motor)
G4 P0.350   ; wait for the 90deg rotation to finish
G0 X173.148 Y174.334
M3   ; pen DOWN (one 90deg pulse of the one-way gear motor)
G4 P0.350   ; wait for the 90deg rotation to finish
G1 F900
G1 X173.080 Y174.683
G1 X172.988 Y175.026
G1 X172.893 Y175.368
G1 X172.875 Y175.722
G1 X172.859 Y176.076
G1 X172.784 Y176.423
G1 X172.745 Y176.775
G1 X172.748 Y177.130
G1 X172.753 Y177.485
G1 X172.759 Y177.841
G1 X172.764 Y178.196
G1 X172.770 Y178.551
G1 X172.775 Y178.906
G1 X172.780 Y179.261
M5   ; pen UP (one 90deg pulse of the one-way gear motor)
G4 P0.350   ; wait for the 90deg rotation to finish
G0 X177.856 Y177.672
M3   ; pen DOWN (one 90deg pulse of the one-way gear motor)
G4 P0.350   ; wait for the 90deg rotation to finish
G1 F900
G1 X178.194 Y177.674
G1 X178.532 Y177.677
G1 X178.870 Y177.685
G1 X179.203 Y177.741
G1 X179.532 Y177.817
G1 X179.868 Y177.850
G1 X180.200 Y177.911
G1 X180.533 Y177.970
M5   ; pen UP (one 90deg pulse of the one-way gear motor)
G4 P0.350   ; wait for the 90deg rotation to finish
G0 X179.031 Y179.507
M3   ; pen DOWN (one 90deg pulse of the one-way gear motor)
G4 P0.350   ; wait for the 90deg rotation to finish
G1 F900
G1 X179.033 Y179.158
G1 X179.036 Y178.809
G1 X179.039 Y178.459
G1 X179.044 Y178.110
G1 X179.100 Y177.766
G1 X179.139 Y177.424
G1 X179.072 Y177.081
G1 X179.054 Y176.733
G1 X179.055 Y176.383
G1 X179.058 Y176.034
G1 X179.063 Y175.685
G1 X179.111 Y175.340
G1 X179.285 Y175.041
G1 X179.591 Y174.891
G1 X179.937 Y174.892
G1 X180.259 Y175.021
M5   ; pen UP (one 90deg pulse of the one-way gear motor)
G4 P0.350   ; wait for the 90deg rotation to finish
G0 X182.671 Y177.509
M3   ; pen DOWN (one 90deg pulse of the one-way gear motor)
G4 P0.350   ; wait for the 90deg rotation to finish
G1 F900
G1 X182.332 Y177.421
G1 X182.008 Y177.286
G1 X181.772 Y177.035
G1 X181.671 Y176.702
G1 X181.633 Y176.354
G1 X181.630 Y176.004
G1 X181.691 Y175.659
G1 X181.721 Y175.310
G1 X181.797 Y174.968
G1 X181.890 Y174.630
G1 X182.087 Y174.349
G1 X182.411 Y174.228
G1 X182.756 Y174.277
G1 X183.097 Y174.359
G1 X183.415 Y174.501
G1 X183.638 Y174.770
G1 X183.855 Y175.046
G1 X184.023 Y175.351
G1 X184.122 Y175.688
G1 X184.206 Y175.820
G1 X184.272 Y175.475
G1 X184.339 Y175.131
G1 X184.475 Y174.927
G1 X184.809 Y175.024
G1 X185.160 Y175.031
G1 X185.511 Y175.030
G1 X185.862 Y175.029
G1 X186.213 Y175.037
G1 X186.559 Y175.091
G1 X186.878 Y175.119
G1 X187.177 Y174.936
G1 X187.477 Y174.753
G1 X187.776 Y174.569
G1 X188.075 Y174.386
G1 X188.374 Y174.202
G1 X188.674 Y174.021
G1 X188.987 Y173.890
G1 X189.329 Y173.969
G1 X189.671 Y174.047
G1 X190.013 Y174.126
G1 X190.355 Y174.204
G1 X190.697 Y174.283
G1 X191.028 Y174.360
G1 X190.681 Y174.319
G1 X190.371 Y174.157
G1 X190.050 Y174.021
G1 X189.703 Y174.018
G1 X189.397 Y174.175
G1 X189.193 Y174.457
G1 X189.091 Y174.792
G1 X189.020 Y175.136
G1 X188.982 Y175.484
G1 X189.003 Y175.834
G1 X189.140 Y176.154
G1 X189.316 Y176.457
G1 X189.526 Y176.736
G1 X189.772 Y176.986
G1 X190.076 Y177.155
G1 X190.415 Y177.241
G1 X190.765 Y177.252
G1 X191.088 Y177.141
G1 X191.160 Y176.821
G1 X191.111 Y176.474
G1 X191.095 Y176.123
G1 X191.082 Y175.773
G1 X191.070 Y175.422
G1 X191.058 Y175.071
G1 X191.049 Y174.721
G1 X191.092 Y174.374
G1 X191.263 Y174.076
G1 X191.577 Y173.929
M5   ; pen UP (one 90deg pulse of the one-way gear motor)
G4 P0.350   ; wait for the 90deg rotation to finish
G0 X192.570 Y175.560
M3   ; pen DOWN (one 90deg pulse of the one-way gear motor)
G4 P0.350   ; wait for the 90deg rotation to finish
G1 F900
G1 X192.556 Y175.207
G1 X192.544 Y174.853
G1 X192.577 Y174.503
G1 X192.737 Y174.189
G1 X192.979 Y173.937
G1 X193.307 Y173.811
G1 X193.658 Y173.781
G1 X193.990 Y173.889
G1 X194.164 Y174.189
G1 X194.212 Y174.538
G1 X194.228 Y174.891
G1 X194.242 Y175.245
G1 X194.256 Y175.598
G1 X194.270 Y175.951
M5   ; pen UP (one 90deg pulse of the one-way gear motor)
G4 P0.350   ; wait for the 90deg rotation to finish
G0 X193.876 Y173.762
M3   ; pen DOWN (one 90deg pulse of the one-way gear motor)
G4 P0.350   ; wait for the 90deg rotation to finish
G1 F900
G1 X194.125 Y173.510
G1 X194.261 Y173.180
G1 X194.303 Y172.829
G1 X194.343 Y172.476
G1 X194.332 Y172.126
G1 X194.209 Y171.790
G1 X194.015 Y171.498
G1 X193.688 Y171.368
G1 X193.333 Y171.334
G1 X192.978 Y171.359
G1 X192.638 Y171.469
G1 X192.308 Y171.602
G1 X191.956 Y171.659
M5   ; pen UP (one 90deg pulse of the one-way gear motor)
G4 P0.350   ; wait for the 90deg rotation to finish
G0 X196.120 Y174.638
M3   ; pen DOWN (one 90deg pulse of the one-way gear motor)
G4 P0.350   ; wait for the 90deg rotation to finish
G1 F900
G1 X196.321 Y174.399
M5   ; pen UP (one 90deg pulse of the one-way gear motor)
G4 P0.350   ; wait for the 90deg rotation to finish
G0 X186.985 Y174.279
M3   ; pen DOWN (one 90deg pulse of the one-way gear motor)
G4 P0.350   ; wait for the 90deg rotation to finish
G1 F900
G1 X186.964 Y174.640
G1 X186.914 Y174.998
G1 X186.851 Y175.354
G1 X186.918 Y175.707
G1 X187.003 Y176.058
G1 X187.023 Y176.419
G1 X187.016 Y176.781
G1 X187.051 Y177.140
G1 X187.108 Y177.497
G1 X187.107 Y177.858
G1 X187.088 Y178.219
G1 X187.106 Y178.579
G1 X187.174 Y178.934
G1 X187.174 Y179.296
M5   ; pen UP (one 90deg pulse of the one-way gear motor)
G4 P0.350   ; wait for the 90deg rotation to finish
G0 X187.089 Y178.125
M3   ; pen DOWN (one 90deg pulse of the one-way gear motor)
G4 P0.350   ; wait for the 90deg rotation to finish
G1 F900
G1 X186.739 Y178.092
G1 X186.388 Y178.060
G1 X186.038 Y178.021
G1 X185.705 Y177.916
G1 X185.433 Y177.696
G1 X185.204 Y177.429
G1 X185.028 Y177.124
M5   ; pen UP (one 90deg pulse of the one-way gear motor)
G4 P0.350   ; wait for the 90deg rotation to finish
G0 X184.734 Y176.976
M3   ; pen DOWN (one 90deg pulse of the one-way gear motor)
G4 P0.350   ; wait for the 90deg rotation to finish
G1 F900
G1 X184.751 Y176.651
G1 X184.768 Y176.326
G1 X184.781 Y176.000
G1 X184.757 Y175.676
G1 X184.696 Y175.357
G1 X184.684 Y175.032
M5   ; pen UP (one 90deg pulse of the one-way gear motor)
G4 P0.350   ; wait for the 90deg rotation to finish
G0 X183.994 Y177.012
M3   ; pen DOWN (one 90deg pulse of the one-way gear motor)
G4 P0.350   ; wait for the 90deg rotation to finish
G1 F900
G1 X183.866 Y177.246
G1 X183.737 Y177.480
M5   ; pen UP (one 90deg pulse of the one-way gear motor)
G4 P0.350   ; wait for the 90deg rotation to finish
G0 X85.301 Y179.441
M3   ; pen DOWN (one 90deg pulse of the one-way gear motor)
G4 P0.350   ; wait for the 90deg rotation to finish
G1 F900
G1 X85.303 Y179.084
G1 X85.303 Y178.727
G1 X85.306 Y178.370
G1 X85.309 Y178.014
G1 X85.312 Y177.657
G1 X85.374 Y177.307
G1 X85.520 Y176.983
G1 X85.557 Y176.633
G1 X85.477 Y176.286
G1 X85.399 Y175.938
G1 X85.366 Y175.583
G1 X85.346 Y175.226
G1 X85.325 Y174.870
G1 X85.304 Y174.514
M5   ; pen UP (one 90deg pulse of the one-way gear motor)
G4 P0.350   ; wait for the 90deg rotation to finish
G0 X82.933 Y174.195
M3   ; pen DOWN (one 90deg pulse of the one-way gear motor)
G4 P0.350   ; wait for the 90deg rotation to finish
G1 F900
G1 X82.915 Y174.534
G1 X82.851 Y174.868
G1 X82.788 Y175.201
G1 X82.782 Y175.541
G1 X82.781 Y175.881
G1 X82.779 Y176.220
G1 X82.772 Y176.560
G1 X82.711 Y176.893
G1 X82.610 Y177.217
G1 X82.522 Y177.546
G1 X82.488 Y177.883
G1 X82.484 Y178.223
G1 X82.471 Y178.562
G1 X82.336 Y178.871
M5   ; pen UP (one 90deg pulse of the one-way gear motor)
G4 P0.350   ; wait for the 90deg rotation to finish
G0 X82.635 Y176.890
M3   ; pen DOWN (one 90deg pulse of the one-way gear motor)
G4 P0.350   ; wait for the 90deg rotation to finish
G1 F900
G1 X82.777 Y176.891
M5   ; pen UP (one 90deg pulse of the one-way gear motor)
G4 P0.350   ; wait for the 90deg rotation to finish
G0 X10.000 Y180.000   ; park
M2
