; Handwriting-Robot G-code -- yeukita
; author=yeukita strokes=73 scale=0.989
; steps/mm  X=80.000  Y=80.000 (3200 microsteps/rev)
; pen: one-way gear motor, M5=up M3=down, each = one 90deg pulse
G21   ; millimetres
G90   ; absolute
G0 F2400
G0 X10.000 Y176.894
M3   ; pen DOWN (one 90deg pulse of the one-way gear motor)
G4 P0.350   ; wait for the 90deg rotation to finish
G1 F900
G1 X10.363 Y176.893
G1 X10.727 Y176.892
G1 X11.090 Y176.892
G1 X11.453 Y176.891
G1 X11.816 Y176.890
G1 X12.180 Y176.890
M5   ; pen UP (one 90deg pulse of the one-way gear motor)
G4 P0.350   ; wait for the 90deg rotation to finish
G0 X10.993 Y178.177
M3   ; pen DOWN (one 90deg pulse of the one-way gear motor)
G4 P0.350   ; wait for the 90deg rotation to finish
G1 F900
G1 X10.993 Y177.828
G1 X10.992 Y177.478
G1 X10.991 Y177.129
G1 X10.991 Y176.779
G1 X10.990 Y176.429
G1 X10.989 Y176.080
G1 X10.988 Y175.730
G1 X10.988 Y175.381
G1 X10.987 Y175.031
G1 X10.986 Y174.682
G1 X10.986 Y174.332
G1 X10.985 Y173.982
G1 X11.075 Y173.684
G1 X11.375 Y173.504
G1 X11.674 Y173.324
G1 X11.974 Y173.145
M5   ; pen UP (one 90deg pulse of the one-way gear motor)
G4 P0.350   ; wait for the 90deg rotation to finish
G0 X15.372 Y173.315
M3   ; pen DOWN (one 90deg pulse of the one-way gear motor)
G4 P0.350   ; wait for the 90deg rotation to finish
G1 F900
G1 X15.335 Y173.654
G1 X15.248 Y173.983
G1 X15.201 Y174.321
G1 X15.200 Y174.662
G1 X15.248 Y174.999
G1 X15.314 Y175.334
G1 X15.277 Y175.672
G1 X15.268 Y176.012
G1 X15.229 Y176.346
G1 X15.070 Y176.647
G1 X14.942 Y176.963
G1 X14.860 Y177.294
G1 X14.838 Y177.635
G1 X14.832 Y177.976
G1 X14.825 Y178.317
M5   ; pen UP (one 90deg pulse of the one-way gear motor)
G4 P0.350   ; wait for the 90deg rotation to finish
G0 X15.315 Y176.336
M3   ; pen DOWN (one 90deg pulse of the one-way gear motor)
G4 P0.350   ; wait for the 90deg rotation to finish
G1 F900
G1 X15.632 Y176.473
G1 X15.979 Y176.498
G1 X16.328 Y176.492
G1 X16.660 Y176.393
G1 X16.910 Y176.155
G1 X17.032 Y175.832
G1 X17.117 Y175.494
G1 X17.245 Y175.169
G1 X17.290 Y174.824
G1 X17.297 Y174.476
G1 X17.281 Y174.128
G1 X17.158 Y173.804
M5   ; pen UP (one 90deg pulse of the one-way gear motor)
G4 P0.350   ; wait for the 90deg rotation to finish
G0 X18.537 Y174.179
M3   ; pen DOWN (one 90deg pulse of the one-way gear motor)
G4 P0.350   ; wait for the 90deg rotation to finish
G1 F900
G1 X18.674 Y174.325
M5   ; pen UP (one 90deg pulse of the one-way gear motor)
G4 P0.350   ; wait for the 90deg rotation to finish
G0 X18.537 Y174.179
M3   ; pen DOWN (one 90deg pulse of the one-way gear motor)
G4 P0.350   ; wait for the 90deg rotation to finish
G1 F900
G1 X18.762 Y174.438
G1 X19.068 Y174.595
G1 X19.359 Y174.780
G1 X19.602 Y175.024
G1 X19.819 Y175.293
G1 X19.959 Y175.606
G1 X19.981 Y175.949
G1 X19.865 Y176.272
G1 X19.664 Y176.551
G1 X19.397 Y176.768
G1 X19.065 Y176.829
G1 X18.770 Y176.661
G1 X18.620 Y176.359
G1 X18.568 Y176.017
G1 X18.531 Y175.674
G1 X18.490 Y175.331
G1 X18.453 Y174.987
G1 X18.442 Y174.642
G1 X18.543 Y174.316
G1 X18.691 Y174.003
G1 X18.843 Y173.694
G1 X19.075 Y173.443
G1 X19.401 Y173.360
G1 X19.746 Y173.386
G1 X20.090 Y173.422
G1 X20.433 Y173.457
G1 X20.777 Y173.492
M5   ; pen UP (one 90deg pulse of the one-way gear motor)
G4 P0.350   ; wait for the 90deg rotation to finish
G0 X26.037 Y171.513
M3   ; pen DOWN (one 90deg pulse of the one-way gear motor)
G4 P0.350   ; wait for the 90deg rotation to finish
G1 F900
G1 X26.384 Y171.527
G1 X26.730 Y171.557
G1 X27.064 Y171.651
G1 X27.365 Y171.822
G1 X27.647 Y172.025
G1 X27.860 Y172.297
G1 X28.011 Y172.604
G1 X28.027 Y172.951
G1 X28.114 Y173.284
G1 X28.031 Y173.620
G1 X27.982 Y173.964
G1 X27.824 Y174.272
G1 X27.778 Y174.612
G1 X27.796 Y174.958
G1 X27.739 Y175.300
G1 X27.698 Y175.645
G1 X27.690 Y175.992
G1 X27.636 Y176.335
G1 X27.558 Y176.673
G1 X27.492 Y177.014
G1 X27.261 Y177.242
G1 X26.916 Y177.226
G1 X26.576 Y177.155
G1 X26.258 Y177.018
G1 X25.990 Y176.799
G1 X25.752 Y176.547
G1 X25.545 Y176.268
G1 X25.411 Y175.949
G1 X25.284 Y175.626
G1 X25.221 Y175.285
G1 X25.204 Y174.938
G1 X25.286 Y174.602
G1 X25.427 Y174.284
G1 X25.628 Y174.007
G1 X25.952 Y173.902
G1 X26.299 Y173.882
G1 X26.639 Y173.949
G1 X26.981 Y174.012
G1 X27.324 Y174.068
G1 X27.643 Y174.193
G1 X27.948 Y174.182
G1 X28.274 Y174.062
G1 X28.600 Y173.942
G1 X28.926 Y173.822
G1 X29.252 Y173.701
G1 X29.578 Y173.581
G1 X29.918 Y173.558
G1 X30.262 Y173.603
G1 X30.606 Y173.657
G1 X30.949 Y173.711
G1 X31.292 Y173.765
G1 X31.636 Y173.818
G1 X31.215 Y173.692
G1 X30.869 Y173.661
G1 X30.525 Y173.616
G1 X30.189 Y173.685
G1 X29.950 Y173.921
G1 X29.866 Y174.257
G1 X29.777 Y174.593
G1 X29.713 Y174.933
G1 X29.707 Y175.281
G1 X29.775 Y175.621
G1 X29.863 Y175.957
G1 X29.949 Y176.293
G1 X30.157 Y176.563
G1 X30.486 Y176.612
G1 X30.799 Y176.472
G1 X31.023 Y176.209
G1 X31.265 Y175.961
G1 X31.517 Y175.723
G1 X31.665 Y175.414
G1 X31.702 Y175.069
G1 X31.719 Y174.722
G1 X31.736 Y174.375
G1 X31.765 Y174.029
G1 X31.854 Y173.695
G1 X32.031 Y173.399
G1 X32.360 Y173.295
M5   ; pen UP (one 90deg pulse of the one-way gear motor)
G4 P0.350   ; wait for the 90deg rotation to finish
G0 X33.434 Y173.972
M3   ; pen DOWN (one 90deg pulse of the one-way gear motor)
G4 P0.350   ; wait for the 90deg rotation to finish
G1 F900
G1 X33.437 Y174.326
G1 X33.441 Y174.680
G1 X33.444 Y175.034
G1 X33.447 Y175.388
G1 X33.484 Y175.738
G1 X33.563 Y176.083
G1 X33.740 Y176.385
G1 X33.973 Y176.651
G1 X34.267 Y176.843
G1 X34.612 Y176.908
G1 X34.951 Y176.829
G1 X35.178 Y176.564
G1 X35.311 Y176.236
G1 X35.429 Y175.902
G1 X35.539 Y175.566
G1 X35.587 Y175.218
G1 X35.582 Y174.864
G1 X35.593 Y174.510
G1 X35.603 Y174.156
G1 X35.616 Y173.803
M5   ; pen UP (one 90deg pulse of the one-way gear motor)
G4 P0.350   ; wait for the 90deg rotation to finish
G0 X37.905 Y174.207
M3   ; pen DOWN (one 90deg pulse of the one-way gear motor)
G4 P0.350   ; wait for the 90deg rotation to finish
G1 F900
G1 X37.914 Y174.557
G1 X37.923 Y174.908
G1 X37.934 Y175.259
G1 X37.945 Y175.609
G1 X37.956 Y175.960
G1 X37.948 Y176.310
G1 X37.868 Y176.650
G1 X37.745 Y176.979
G1 X37.677 Y177.321
G1 X37.651 Y177.671
G1 X37.631 Y178.021
G1 X37.606 Y178.371
G1 X37.586 Y178.721
M5   ; pen UP (one 90deg pulse of the one-way gear motor)
G4 P0.350   ; wait for the 90deg rotation to finish
G0 X37.975 Y176.601
M3   ; pen DOWN (one 90deg pulse of the one-way gear motor)
G4 P0.350   ; wait for the 90deg rotation to finish
G1 F900
G1 X37.820 Y176.452
M5   ; pen UP (one 90deg pulse of the one-way gear motor)
G4 P0.350   ; wait for the 90deg rotation to finish
G0 X36.616 Y176.305
M3   ; pen DOWN (one 90deg pulse of the one-way gear motor)
G4 P0.350   ; wait for the 90deg rotation to finish
G1 F900
G1 X36.964 Y176.343
G1 X37.312 Y176.381
G1 X37.660 Y176.424
G1 X37.978 Y176.562
G1 X38.324 Y176.600
G1 X38.673 Y176.613
G1 X39.000 Y176.732
G1 X39.111 Y176.441
G1 X39.202 Y176.103
G1 X39.293 Y175.765
G1 X39.384 Y175.426
G1 X39.474 Y175.088
G1 X39.649 Y174.867
G1 X39.982 Y174.959
G1 X40.087 Y175.241
G1 X40.093 Y175.592
G1 X40.098 Y175.942
G1 X40.104 Y176.292
G1 X40.132 Y176.641
G1 X40.247 Y176.969
G1 X40.491 Y177.217
G1 X40.776 Y177.421
G1 X41.078 Y177.597
G1 X41.418 Y177.677
G1 X41.768 Y177.683
G1 X42.118 Y177.678
M5   ; pen UP (one 90deg pulse of the one-way gear motor)
G4 P0.350   ; wait for the 90deg rotation to finish
G0 X43.214 Y175.108
M3   ; pen DOWN (one 90deg pulse of the one-way gear motor)
G4 P0.350   ; wait for the 90deg rotation to finish
G1 F900
G1 X43.211 Y174.757
G1 X43.210 Y174.407
G1 X43.254 Y174.060
G1 X43.422 Y173.754
G1 X43.671 Y173.514
G1 X44.002 Y173.406
G1 X44.352 Y173.389
G1 X44.681 Y173.498
G1 X44.845 Y173.800
G1 X44.880 Y174.148
G1 X44.885 Y174.498
G1 X44.888 Y174.849
G1 X44.891 Y175.200
G1 X44.894 Y175.551
M5   ; pen UP (one 90deg pulse of the one-way gear motor)
G4 P0.350   ; wait for the 90deg rotation to finish
G0 X44.571 Y173.377
M3   ; pen DOWN (one 90deg pulse of the one-way gear motor)
G4 P0.350   ; wait for the 90deg rotation to finish
G1 F900
G1 X44.826 Y173.151
G1 X44.977 Y172.843
G1 X45.026 Y172.506
G1 X45.085 Y172.168
G1 X45.065 Y171.833
G1 X44.945 Y171.510
G1 X44.734 Y171.248
G1 X44.408 Y171.144
G1 X44.066 Y171.111
G1 X43.724 Y171.132
G1 X43.394 Y171.225
G1 X43.068 Y171.333
G1 X42.727 Y171.374
M5   ; pen UP (one 90deg pulse of the one-way gear motor)
G4 P0.350   ; wait for the 90deg rotation to finish
G0 X50.375 Y176.810
M3   ; pen DOWN (one 90deg pulse of the one-way gear motor)
G4 P0.350   ; wait for the 90deg rotation to finish
G1 F900
G1 X50.449 Y176.473
G1 X50.523 Y176.135
G1 X50.597 Y175.798
G1 X50.671 Y175.461
G1 X50.745 Y175.123
G1 X50.820 Y174.786
G1 X50.894 Y174.449
G1 X50.968 Y174.111
G1 X51.042 Y173.774
G1 X51.116 Y173.437
G1 X51.315 Y173.723
G1 X51.425 Y174.051
G1 X51.534 Y174.378
G1 X51.643 Y174.706
G1 X51.753 Y175.034
G1 X51.862 Y175.361
G1 X51.972 Y175.689
G1 X52.081 Y176.011
G1 X52.184 Y175.681
G1 X52.287 Y175.351
G1 X52.390 Y175.022
G1 X52.493 Y174.692
G1 X52.595 Y174.362
G1 X52.698 Y174.032
G1 X52.801 Y173.703
G1 X52.904 Y173.373
G1 X53.079 Y173.782
G1 X53.162 Y174.117
G1 X53.246 Y174.452
G1 X53.329 Y174.787
G1 X53.413 Y175.122
G1 X53.497 Y175.458
G1 X53.580 Y175.793
G1 X53.664 Y176.128
G1 X53.747 Y176.463
G1 X53.831 Y176.798
M5   ; pen UP (one 90deg pulse of the one-way gear motor)
G4 P0.350   ; wait for the 90deg rotation to finish
G0 X54.923 Y174.421
M3   ; pen DOWN (one 90deg pulse of the one-way gear motor)
G4 P0.350   ; wait for the 90deg rotation to finish
G1 F900
G1 X54.929 Y174.766
G1 X54.936 Y175.111
G1 X54.942 Y175.457
G1 X54.982 Y175.798
G1 X55.106 Y176.120
G1 X55.234 Y176.440
G1 X55.448 Y176.707
G1 X55.750 Y176.873
G1 X56.070 Y177.003
G1 X56.394 Y177.122
G1 X56.721 Y177.231
G1 X57.062 Y177.282
M5   ; pen UP (one 90deg pulse of the one-way gear motor)
G4 P0.350   ; wait for the 90deg rotation to finish
G0 X57.975 Y177.043
M3   ; pen DOWN (one 90deg pulse of the one-way gear motor)
G4 P0.350   ; wait for the 90deg rotation to finish
G1 F900
G1 X58.284 Y177.179
G1 X58.628 Y177.177
G1 X58.973 Y177.168
G1 X59.318 Y177.159
G1 X59.663 Y177.149
G1 X60.006 Y177.129
G1 X60.315 Y176.987
G1 X60.490 Y176.696
G1 X60.551 Y176.359
G1 X60.573 Y176.015
G1 X60.646 Y175.678
G1 X60.677 Y175.336
G1 X60.671 Y174.991
G1 X60.662 Y174.646
G1 X60.652 Y174.302
G1 X60.734 Y174.035
G1 X61.073 Y174.023
G1 X61.311 Y174.220
G1 X61.399 Y174.554
G1 X61.487 Y174.887
G1 X61.576 Y175.220
G1 X61.664 Y175.553
G1 X61.753 Y175.887
G1 X61.841 Y176.220
G1 X62.177 Y176.268
G1 X62.520 Y176.309
G1 X62.861 Y176.356
G1 X63.171 Y176.499
G1 X63.512 Y176.534
G1 X63.855 Y176.556
G1 X64.172 Y176.686
M5   ; pen UP (one 90deg pulse of the one-way gear motor)
G4 P0.350   ; wait for the 90deg rotation to finish
G0 X65.072 Y176.419
M3   ; pen DOWN (one 90deg pulse of the one-way gear motor)
G4 P0.350   ; wait for the 90deg rotation to finish
G1 F900
G1 X65.094 Y176.090
G1 X65.116 Y175.762
G1 X65.138 Y175.434
G1 X65.160 Y175.105
G1 X65.182 Y174.777
G1 X65.204 Y174.448
G1 X65.226 Y174.120
M5   ; pen UP (one 90deg pulse of the one-way gear motor)
G4 P0.350   ; wait for the 90deg rotation to finish
G0 X64.657 Y173.687
M3   ; pen DOWN (one 90deg pulse of the one-way gear motor)
G4 P0.350   ; wait for the 90deg rotation to finish
G1 F900
G1 X64.922 Y173.930
G1 X65.270 Y174.030
G1 X65.632 Y173.998
G1 X65.995 Y173.981
G1 X66.359 Y173.987
G1 X66.711 Y174.064
G1 X67.010 Y174.268
G1 X67.225 Y174.560
M5   ; pen UP (one 90deg pulse of the one-way gear motor)
G4 P0.350   ; wait for the 90deg rotation to finish
G0 X67.503 Y173.671
M3   ; pen DOWN (one 90deg pulse of the one-way gear motor)
G4 P0.350   ; wait for the 90deg rotation to finish
G1 F900
G1 X67.798 Y173.510
G1 X68.114 Y173.399
G1 X68.448 Y173.362
G1 X68.783 Y173.366
G1 X69.104 Y173.455
G1 X69.322 Y173.698
G1 X69.394 Y174.023
G1 X69.373 Y174.358
G1 X69.298 Y174.686
G1 X69.187 Y175.003
G1 X69.057 Y175.312
G1 X68.913 Y175.616
G1 X68.775 Y175.922
G1 X68.688 Y176.246
G1 X68.737 Y176.572
G1 X68.932 Y176.842
M5   ; pen UP (one 90deg pulse of the one-way gear motor)
G4 P0.350   ; wait for the 90deg rotation to finish
G0 X66.496 Y177.142
M3   ; pen DOWN (one 90deg pulse of the one-way gear motor)
G4 P0.350   ; wait for the 90deg rotation to finish
G1 F900
G1 X66.172 Y177.100
G1 X65.884 Y176.948
G1 X65.601 Y176.785
G1 X65.307 Y176.642
G1 X65.072 Y176.419
M5   ; pen UP (one 90deg pulse of the one-way gear motor)
G4 P0.350   ; wait for the 90deg rotation to finish
G0 X63.154 Y176.533
M3   ; pen DOWN (one 90deg pulse of the one-way gear motor)
G4 P0.350   ; wait for the 90deg rotation to finish
G1 F900
G1 X63.006 Y176.382
M5   ; pen UP (one 90deg pulse of the one-way gear motor)
G4 P0.350   ; wait for the 90deg rotation to finish
G0 X63.100 Y174.131
M3   ; pen DOWN (one 90deg pulse of the one-way gear motor)
G4 P0.350   ; wait for the 90deg rotation to finish
G1 F900
G1 X63.107 Y174.482
G1 X63.114 Y174.834
G1 X63.123 Y175.185
G1 X63.131 Y175.537
G1 X63.139 Y175.889
G1 X63.130 Y176.240
G1 X63.051 Y176.581
G1 X62.930 Y176.911
G1 X62.862 Y177.255
G1 X62.835 Y177.606
G1 X62.814 Y177.957
G1 X62.788 Y178.307
G1 X62.767 Y178.658
M5   ; pen UP (one 90deg pulse of the one-way gear motor)
G4 P0.350   ; wait for the 90deg rotation to finish
G0 X58.036 Y179.322
M3   ; pen DOWN (one 90deg pulse of the one-way gear motor)
G4 P0.350   ; wait for the 90deg rotation to finish
G1 F900
G1 X57.923 Y178.987
G1 X57.886 Y178.638
G1 X57.966 Y178.293
G1 X57.997 Y177.942
G1 X57.989 Y177.588
G1 X57.980 Y177.234
G1 X57.976 Y176.880
G1 X58.031 Y176.531
G1 X58.096 Y176.184
G1 X58.097 Y175.830
G1 X58.087 Y175.476
G1 X58.078 Y175.123
G1 X58.090 Y174.769
G1 X58.156 Y174.422
G1 X58.265 Y174.088
G1 X58.578 Y173.950
G1 X58.932 Y173.958
G1 X59.270 Y174.054
G1 X59.578 Y174.227
M5   ; pen UP (one 90deg pulse of the one-way gear motor)
G4 P0.350   ; wait for the 90deg rotation to finish
G0 X73.372 Y176.020
M3   ; pen DOWN (one 90deg pulse of the one-way gear motor)
G4 P0.350   ; wait for the 90deg rotation to finish
G1 F900
G1 X73.712 Y176.062
G1 X74.052 Y176.105
G1 X74.391 Y176.153
G1 X74.700 Y176.296
G1 X75.039 Y176.330
G1 X75.379 Y176.356
G1 X75.694 Y176.481
G1 X76.028 Y176.404
G1 X76.362 Y176.328
G1 X76.696 Y176.252
G1 X77.017 Y176.339
G1 X77.206 Y176.624
G1 X77.395 Y176.910
G1 X77.584 Y177.196
G1 X77.773 Y177.482
G1 X77.962 Y177.768
G1 X78.151 Y178.054
G1 X78.462 Y178.183
G1 X78.802 Y178.206
G1 X79.142 Y178.171
G1 X79.461 Y178.050
G1 X79.688 Y177.809
G1 X79.746 Y177.473
G1 X79.813 Y177.137
G1 X79.869 Y176.800
G1 X79.877 Y176.457
G1 X79.876 Y176.115
G1 X79.876 Y175.772
G1 X79.851 Y175.432
G1 X79.733 Y175.112
M5   ; pen UP (one 90deg pulse of the one-way gear motor)
G4 P0.350   ; wait for the 90deg rotation to finish
G0 X79.876 Y175.569
M3   ; pen DOWN (one 90deg pulse of the one-way gear motor)
G4 P0.350   ; wait for the 90deg rotation to finish
G1 F900
G1 X80.304 Y175.569
M5   ; pen UP (one 90deg pulse of the one-way gear motor)
G4 P0.350   ; wait for the 90deg rotation to finish
G0 X81.566 Y176.374
M3   ; pen DOWN (one 90deg pulse of the one-way gear motor)
G4 P0.350   ; wait for the 90deg rotation to finish
G1 F900
G1 X81.569 Y176.033
G1 X81.573 Y175.693
G1 X81.576 Y175.352
G1 X81.578 Y175.011
G1 X81.555 Y174.672
G1 X81.493 Y174.337
G1 X81.458 Y173.999
M5   ; pen UP (one 90deg pulse of the one-way gear motor)
G4 P0.350   ; wait for the 90deg rotation to finish
G0 X81.583 Y174.657
M3   ; pen DOWN (one 90deg pulse of the one-way gear motor)
G4 P0.350   ; wait for the 90deg rotation to finish
G1 F900
G1 X81.912 Y174.561
G1 X82.253 Y174.536
G1 X82.597 Y174.533
G1 X82.938 Y174.503
G1 X83.275 Y174.440
G1 X83.608 Y174.482
G1 X83.721 Y174.782
G1 X83.665 Y175.121
G1 X83.611 Y175.459
G1 X83.482 Y175.776
G1 X83.311 Y176.074
G1 X83.185 Y176.392
G1 X83.144 Y176.730
G1 X83.306 Y177.025
G1 X83.510 Y177.094
G1 X83.547 Y176.753
G1 X83.585 Y176.412
G1 X83.622 Y176.070
G1 X83.660 Y175.729
G1 X83.697 Y175.388
G1 X83.735 Y175.047
G1 X83.772 Y174.706
G1 X83.810 Y174.365
G1 X83.848 Y174.024
G1 X83.936 Y173.696
G1 X84.220 Y173.698
G1 X84.550 Y173.644
G1 X84.886 Y173.576
G1 X85.228 Y173.561
G1 X85.567 Y173.611
G1 X85.850 Y173.735
G1 X85.937 Y174.066
G1 X85.978 Y174.407
G1 X85.910 Y174.742
G1 X85.814 Y175.071
G1 X85.709 Y175.398
G1 X85.547 Y175.700
G1 X85.457 Y176.028
G1 X85.472 Y176.369
G1 X85.549 Y176.686
G1 X85.781 Y176.931
M5   ; pen UP (one 90deg pulse of the one-way gear motor)
G4 P0.350   ; wait for the 90deg rotation to finish
G0 X90.768 Y173.721
M3   ; pen DOWN (one 90deg pulse of the one-way gear motor)
G4 P0.350   ; wait for the 90deg rotation to finish
G1 F900
G1 X91.063 Y173.561
G1 X91.379 Y173.451
G1 X91.713 Y173.415
G1 X92.048 Y173.420
G1 X92.369 Y173.508
G1 X92.589 Y173.748
G1 X92.661 Y174.074
G1 X92.640 Y174.408
G1 X92.564 Y174.735
G1 X92.452 Y175.051
G1 X92.320 Y175.360
G1 X92.175 Y175.663
G1 X92.037 Y175.968
G1 X91.948 Y176.291
G1 X91.996 Y176.616
G1 X92.191 Y176.887
M5   ; pen UP (one 90deg pulse of the one-way gear motor)
G4 P0.350   ; wait for the 90deg rotation to finish
G0 X94.030 Y176.479
M3   ; pen DOWN (one 90deg pulse of the one-way gear motor)
G4 P0.350   ; wait for the 90deg rotation to finish
G1 F900
G1 X94.337 Y176.317
G1 X94.663 Y176.206
G1 X95.008 Y176.214
G1 X95.325 Y176.343
G1 X95.426 Y176.665
G1 X95.438 Y177.012
G1 X95.427 Y177.358
G1 X95.278 Y177.665
G1 X94.988 Y177.845
G1 X94.646 Y177.846
G1 X94.361 Y177.659
G1 X94.143 Y177.391
G1 X94.048 Y177.062
G1 X94.024 Y176.716
G1 X93.883 Y176.404
G1 X93.735 Y176.095
G1 X93.704 Y175.750
G1 X93.697 Y175.403
G1 X93.722 Y175.058
G1 X93.836 Y174.732
G1 X94.020 Y174.441
G1 X94.271 Y174.202
G1 X94.581 Y174.064
G1 X94.927 Y174.084
G1 X95.261 Y174.174
G1 X95.587 Y174.294
G1 X95.913 Y174.412
G1 X96.226 Y174.451
G1 X96.507 Y174.251
G1 X96.835 Y174.161
G1 X97.160 Y174.259
G1 X97.150 Y174.606
G1 X97.141 Y174.953
G1 X97.131 Y175.299
G1 X97.122 Y175.646
G1 X97.127 Y175.992
G1 X97.182 Y176.334
G1 X97.294 Y176.658
G1 X97.489 Y176.944
G1 X97.730 Y177.191
G1 X98.043 Y177.331
G1 X98.388 Y177.344
G1 X98.674 Y177.161
G1 X98.842 Y176.860
G1 X98.965 Y176.535
G1 X99.086 Y176.210
G1 X99.191 Y175.880
G1 X99.222 Y175.536
G1 X99.232 Y175.190
G1 X99.257 Y174.844
G1 X99.277 Y174.497
G1 X99.302 Y174.152
M5   ; pen UP (one 90deg pulse of the one-way gear motor)
G4 P0.350   ; wait for the 90deg rotation to finish
G0 X100.634 Y177.210
M3   ; pen DOWN (one 90deg pulse of the one-way gear motor)
G4 P0.350   ; wait for the 90deg rotation to finish
G1 F900
G1 X100.967 Y177.240
G1 X101.300 Y177.220
G1 X101.632 Y177.188
G1 X101.966 Y177.201
G1 X102.296 Y177.257
G1 X102.630 Y177.266
G1 X102.965 Y177.270
M5   ; pen UP (one 90deg pulse of the one-way gear motor)
G4 P0.350   ; wait for the 90deg rotation to finish
G0 X103.637 Y176.909
M3   ; pen DOWN (one 90deg pulse of the one-way gear motor)
G4 P0.350   ; wait for the 90deg rotation to finish
G1 F900
G1 X103.656 Y176.567
G1 X103.674 Y176.226
G1 X103.693 Y175.884
G1 X103.712 Y175.542
G1 X103.730 Y175.201
G1 X103.749 Y174.859
G1 X103.768 Y174.517
M5   ; pen UP (one 90deg pulse of the one-way gear motor)
G4 P0.350   ; wait for the 90deg rotation to finish
G0 X103.163 Y174.075
M3   ; pen DOWN (one 90deg pulse of the one-way gear motor)
G4 P0.350   ; wait for the 90deg rotation to finish
G1 F900
G1 X103.417 Y174.307
G1 X103.746 Y174.417
G1 X104.092 Y174.399
G1 X104.438 Y174.366
G1 X104.786 Y174.360
G1 X105.133 Y174.382
G1 X105.457 Y174.499
G1 X105.722 Y174.724
G1 X105.910 Y174.881
G1 X106.057 Y174.565
G1 X106.238 Y174.272
G1 X106.531 Y174.258
G1 X106.624 Y174.544
G1 X106.627 Y174.892
G1 X106.630 Y175.240
G1 X106.633 Y175.588
G1 X106.652 Y175.935
G1 X106.722 Y176.276
G1 X106.865 Y176.588
G1 X107.082 Y176.860
G1 X107.352 Y177.075
G1 X107.687 Y177.159
G1 X108.025 Y177.100
G1 X108.256 Y176.847
G1 X108.384 Y176.524
G1 X108.497 Y176.194
G1 X108.603 Y175.863
G1 X108.652 Y175.521
G1 X108.648 Y175.172
G1 X108.657 Y174.825
G1 X108.667 Y174.477
G1 X108.679 Y174.129
M5   ; pen UP (one 90deg pulse of the one-way gear motor)
G4 P0.350   ; wait for the 90deg rotation to finish
G0 X112.837 Y174.591
M3   ; pen DOWN (one 90deg pulse of the one-way gear motor)
G4 P0.350   ; wait for the 90deg rotation to finish
G1 F900
G1 X112.815 Y174.935
G1 X112.792 Y175.280
G1 X112.770 Y175.624
G1 X112.747 Y175.968
G1 X112.725 Y176.312
G1 X112.702 Y176.657
G1 X112.680 Y177.001
M5   ; pen UP (one 90deg pulse of the one-way gear motor)
G4 P0.350   ; wait for the 90deg rotation to finish
G0 X112.680 Y177.001
M3   ; pen DOWN (one 90deg pulse of the one-way gear motor)
G4 P0.350   ; wait for the 90deg rotation to finish
G1 F900
G1 X112.917 Y177.234
G1 X113.218 Y177.385
G1 X113.508 Y177.555
G1 X113.802 Y177.715
G1 X114.134 Y177.760
M5   ; pen UP (one 90deg pulse of the one-way gear motor)
G4 P0.350   ; wait for the 90deg rotation to finish
G0 X111.620 Y177.695
M3   ; pen DOWN (one 90deg pulse of the one-way gear motor)
G4 P0.350   ; wait for the 90deg rotation to finish
G1 F900
G1 X111.302 Y177.551
G1 X110.993 Y177.405
G1 X110.793 Y177.120
G1 X110.643 Y176.803
G1 X110.483 Y176.490
G1 X110.383 Y176.155
G1 X110.330 Y175.809
G1 X110.318 Y175.458
G1 X110.315 Y175.109
G1 X110.382 Y174.766
G1 X110.566 Y174.468
G1 X110.837 Y174.268
G1 X111.164 Y174.148
G1 X111.507 Y174.163
G1 X111.841 Y174.274
G1 X112.139 Y174.264
G1 X112.366 Y174.279
G1 X112.670 Y174.450
G1 X113.015 Y174.495
G1 X113.364 Y174.453
G1 X113.716 Y174.445
G1 X114.067 Y174.454
G1 X114.401 Y174.555
G1 X114.678 Y174.767
G1 X114.880 Y175.052
M5   ; pen UP (one 90deg pulse of the one-way gear motor)
G4 P0.350   ; wait for the 90deg rotation to finish
G0 X119.964 Y176.880
M3   ; pen DOWN (one 90deg pulse of the one-way gear motor)
G4 P0.350   ; wait for the 90deg rotation to finish
G1 F900
G1 X120.307 Y176.860
G1 X120.642 Y176.793
G1 X120.979 Y176.732
G1 X121.322 Y176.722
G1 X121.665 Y176.719
G1 X122.008 Y176.715
G1 X122.349 Y176.689
G1 X122.668 Y176.569
M5   ; pen UP (one 90deg pulse of the one-way gear motor)
G4 P0.350   ; wait for the 90deg rotation to finish
G0 X123.792 Y176.777
M3   ; pen DOWN (one 90deg pulse of the one-way gear motor)
G4 P0.350   ; wait for the 90deg rotation to finish
G1 F900
G1 X123.731 Y176.440
G1 X123.650 Y176.108
G1 X123.536 Y175.786
G1 X123.503 Y175.446
G1 X123.504 Y175.103
G1 X123.543 Y174.764
G1 X123.658 Y174.442
G1 X123.832 Y174.148
G1 X124.104 Y173.958
G1 X124.444 Y173.923
G1 X124.785 Y173.947
G1 X125.111 Y174.045
G1 X125.406 Y174.218
G1 X125.616 Y174.481
G1 X125.710 Y174.810
G1 X125.803 Y175.139
G1 X125.888 Y175.470
G1 X125.910 Y175.811
G1 X125.908 Y176.154
G1 X125.852 Y176.489
G1 X125.689 Y176.788
G1 X125.435 Y177.016
G1 X125.122 Y177.146
G1 X124.782 Y177.181
M5   ; pen UP (one 90deg pulse of the one-way gear motor)
G4 P0.350   ; wait for the 90deg rotation to finish
G0 X122.963 Y177.694
M3   ; pen DOWN (one 90deg pulse of the one-way gear motor)
G4 P0.350   ; wait for the 90deg rotation to finish
G1 F900
G1 X122.855 Y178.030
G1 X122.651 Y178.315
G1 X122.383 Y178.544
G1 X122.056 Y178.668
G1 X121.704 Y178.698
G1 X121.404 Y178.527
G1 X121.278 Y178.202
G1 X121.259 Y177.850
G1 X121.255 Y177.496
G1 X121.251 Y177.143
G1 X121.247 Y176.789
G1 X121.243 Y176.436
G1 X121.239 Y176.083
G1 X121.235 Y175.729
G1 X121.231 Y175.376
G1 X121.227 Y175.022
G1 X121.223 Y174.669
G1 X121.223 Y174.316
G1 X121.254 Y173.964
G1 X121.355 Y173.627
M5   ; pen UP (one 90deg pulse of the one-way gear motor)
G4 P0.350   ; wait for the 90deg rotation to finish
G0 X126.817 Y175.314
M3   ; pen DOWN (one 90deg pulse of the one-way gear motor)
G4 P0.350   ; wait for the 90deg rotation to finish
G1 F900
G1 X126.818 Y175.656
G1 X126.819 Y175.999
G1 X126.820 Y176.342
G1 X126.823 Y176.685
G1 X126.863 Y177.024
G1 X127.017 Y177.326
G1 X127.271 Y177.554
G1 X127.555 Y177.746
G1 X127.858 Y177.904
G1 X128.192 Y177.975
G1 X128.534 Y177.981
G1 X128.877 Y177.980
M5   ; pen UP (one 90deg pulse of the one-way gear motor)
G4 P0.350   ; wait for the 90deg rotation to finish
G0 X133.663 Y176.713
M3   ; pen DOWN (one 90deg pulse of the one-way gear motor)
G4 P0.350   ; wait for the 90deg rotation to finish
G1 F900
G1 X134.011 Y176.752
G1 X134.358 Y176.792
G1 X134.705 Y176.836
G1 X135.023 Y176.973
G1 X135.369 Y177.010
G1 X135.717 Y177.027
G1 X136.043 Y177.147
G1 X136.375 Y177.061
G1 X136.709 Y176.955
G1 X137.042 Y176.850
G1 X137.378 Y176.762
G1 X137.710 Y176.821
G1 X138.000 Y177.016
G1 X138.290 Y177.212
G1 X138.580 Y177.407
G1 X138.870 Y177.602
G1 X139.175 Y177.773
G1 X139.519 Y177.820
G1 X139.862 Y177.760
G1 X140.174 Y177.610
G1 X140.380 Y177.331
G1 X140.518 Y177.009
G1 X140.636 Y176.680
G1 X140.685 Y176.335
G1 X140.725 Y175.987
G1 X140.765 Y175.640
G1 X140.752 Y175.291
G1 X140.750 Y174.942
G1 X140.844 Y174.607
M5   ; pen UP (one 90deg pulse of the one-way gear motor)
G4 P0.350   ; wait for the 90deg rotation to finish
G0 X141.721 Y175.118
M3   ; pen DOWN (one 90deg pulse of the one-way gear motor)
G4 P0.350   ; wait for the 90deg rotation to finish
G1 F900
G1 X142.066 Y175.146
G1 X142.411 Y175.174
G1 X142.756 Y175.203
G1 X143.101 Y175.231
G1 X143.446 Y175.259
G1 X143.791 Y175.287
G1 X144.136 Y175.315
G1 X144.187 Y175.520
G1 X144.050 Y175.838
G1 X143.913 Y176.156
G1 X143.776 Y176.474
G1 X143.583 Y176.719
G1 X143.240 Y176.766
G1 X142.897 Y176.814
G1 X142.555 Y176.862
G1 X142.261 Y176.816
G1 X142.105 Y176.507
G1 X141.948 Y176.198
G1 X141.792 Y175.889
G1 X141.636 Y175.581
G1 X141.655 Y175.248
G1 X141.724 Y174.909
G1 X141.793 Y174.570
G1 X141.862 Y174.231
G1 X141.963 Y173.917
G1 X142.281 Y173.781
G1 X142.599 Y173.646
G1 X142.918 Y173.510
G1 X143.236 Y173.374
G1 X143.547 Y173.475
G1 X143.855 Y173.632
G1 X144.164 Y173.788
G1 X144.472 Y173.945
M5   ; pen UP (one 90deg pulse of the one-way gear motor)
G4 P0.350   ; wait for the 90deg rotation to finish
G0 X138.649 Y174.874
M3   ; pen DOWN (one 90deg pulse of the one-way gear motor)
G4 P0.350   ; wait for the 90deg rotation to finish
G1 F900
G1 X138.554 Y175.213
G1 X138.581 Y175.563
G1 X138.682 Y175.901
G1 X138.745 Y176.248
G1 X138.772 Y176.601
G1 X138.799 Y176.953
G1 X138.842 Y177.304
G1 X138.895 Y177.653
G1 X138.891 Y178.006
G1 X138.899 Y178.359
G1 X138.887 Y178.711
G1 X138.794 Y179.052
G1 X138.725 Y179.397
G1 X138.736 Y179.750
M5   ; pen UP (one 90deg pulse of the one-way gear motor)
G4 P0.350   ; wait for the 90deg rotation to finish
G0 X134.617 Y179.082
M3   ; pen DOWN (one 90deg pulse of the one-way gear motor)
G4 P0.350   ; wait for the 90deg rotation to finish
G1 F900
G1 X134.639 Y178.739
G1 X134.665 Y178.397
G1 X134.687 Y178.054
G1 X134.715 Y177.712
G1 X134.784 Y177.378
G1 X134.908 Y177.058
G1 X134.990 Y176.726
G1 X135.000 Y176.383
G1 X134.991 Y176.040
G1 X134.982 Y175.697
G1 X134.973 Y175.354
G1 X134.965 Y175.011
G1 X134.958 Y174.668
M5   ; pen UP (one 90deg pulse of the one-way gear motor)
G4 P0.350   ; wait for the 90deg rotation to finish
G0 X134.862 Y176.863
M3   ; pen DOWN (one 90deg pulse of the one-way gear motor)
G4 P0.350   ; wait for the 90deg rotation to finish
G1 F900
G1 X135.015 Y177.009
M5   ; pen UP (one 90deg pulse of the one-way gear motor)
G4 P0.350   ; wait for the 90deg rotation to finish
G0 X150.023 Y176.711
M3   ; pen DOWN (one 90deg pulse of the one-way gear motor)
G4 P0.350   ; wait for the 90deg rotation to finish
G1 F900
G1 X150.363 Y176.697
G1 X150.696 Y176.627
G1 X151.035 Y176.600
G1 X151.376 Y176.608
G1 X151.717 Y176.616
G1 X152.057 Y176.610
G1 X152.378 Y176.499
M5   ; pen UP (one 90deg pulse of the one-way gear motor)
G4 P0.350   ; wait for the 90deg rotation to finish
G0 X152.495 Y178.141
M3   ; pen DOWN (one 90deg pulse of the one-way gear motor)
G4 P0.350   ; wait for the 90deg rotation to finish
G1 F900
G1 X152.227 Y178.339
G1 X151.903 Y178.446
G1 X151.572 Y178.455
G1 X151.249 Y178.465
G1 X151.093 Y178.164
G1 X150.951 Y177.862
G1 X150.917 Y177.525
G1 X150.852 Y177.194
G1 X150.856 Y176.852
G1 X150.842 Y176.510
G1 X150.876 Y176.171
G1 X150.884 Y175.829
G1 X150.892 Y175.487
G1 X150.900 Y175.145
G1 X150.908 Y174.802
G1 X150.938 Y174.462
G1 X150.939 Y174.120
G1 X150.960 Y173.781
G1 X151.033 Y173.453
M5   ; pen UP (one 90deg pulse of the one-way gear motor)
G4 P0.350   ; wait for the 90deg rotation to finish
G0 X154.223 Y173.380
M3   ; pen DOWN (one 90deg pulse of the one-way gear motor)
G4 P0.350   ; wait for the 90deg rotation to finish
G1 F900
G1 X154.223 Y173.735
G1 X154.223 Y174.090
G1 X154.223 Y174.445
G1 X154.223 Y174.800
G1 X154.223 Y175.155
G1 X154.223 Y175.510
G1 X154.223 Y175.865
G1 X154.222 Y176.220
G1 X154.222 Y176.575
G1 X154.222 Y176.929
M5   ; pen UP (one 90deg pulse of the one-way gear motor)
G4 P0.350   ; wait for the 90deg rotation to finish
G0 X154.222 Y177.928
M3   ; pen DOWN (one 90deg pulse of the one-way gear motor)
G4 P0.350   ; wait for the 90deg rotation to finish
G1 F900
G1 X154.222 Y178.049
M5   ; pen UP (one 90deg pulse of the one-way gear motor)
G4 P0.350   ; wait for the 90deg rotation to finish
G0 X157.864 Y177.388
M3   ; pen DOWN (one 90deg pulse of the one-way gear motor)
G4 P0.350   ; wait for the 90deg rotation to finish
G1 F900
G1 X157.533 Y177.462
G1 X157.201 Y177.524
G1 X156.867 Y177.487
G1 X156.565 Y177.336
G1 X156.278 Y177.156
G1 X156.008 Y176.953
G1 X155.836 Y176.669
G1 X155.789 Y176.334
G1 X155.768 Y175.996
G1 X155.744 Y175.658
G1 X155.720 Y175.320
G1 X155.696 Y174.982
G1 X155.676 Y174.643
G1 X155.652 Y174.305
M5   ; pen UP (one 90deg pulse of the one-way gear motor)
G4 P0.350   ; wait for the 90deg rotation to finish
G0 X158.292 Y175.772
M3   ; pen DOWN (one 90deg pulse of the one-way gear motor)
G4 P0.350   ; wait for the 90deg rotation to finish
G1 F900
G1 X158.275 Y175.428
G1 X158.272 Y175.085
G1 X158.393 Y174.770
G1 X158.714 Y174.662
G1 X159.058 Y174.654
G1 X159.402 Y174.662
G1 X159.738 Y174.729
G1 X159.993 Y174.949
G1 X160.101 Y175.271
G1 X160.110 Y175.614
G1 X160.038 Y175.949
G1 X159.891 Y176.260
G1 X159.728 Y176.563
G1 X159.573 Y176.870
G1 X159.478 Y177.199
G1 X159.452 Y177.542
G1 X159.461 Y177.882
G1 X159.681 Y178.137
G1 X159.903 Y178.071
G1 X160.075 Y177.773
G1 X160.246 Y177.474
G1 X160.418 Y177.176
G1 X160.589 Y176.878
G1 X160.888 Y176.788
G1 X161.220 Y176.874
G1 X161.552 Y176.967
G1 X161.893 Y177.010
G1 X162.234 Y177.054
G1 X162.575 Y177.103
G1 X162.884 Y177.248
G1 X163.224 Y177.284
G1 X163.567 Y177.309
G1 X163.882 Y177.440
M5   ; pen UP (one 90deg pulse of the one-way gear motor)
G4 P0.350   ; wait for the 90deg rotation to finish
G0 X162.861 Y177.279
M3   ; pen DOWN (one 90deg pulse of the one-way gear motor)
G4 P0.350   ; wait for the 90deg rotation to finish
G1 F900
G1 X162.713 Y177.129
M5   ; pen UP (one 90deg pulse of the one-way gear motor)
G4 P0.350   ; wait for the 90deg rotation to finish
G0 X162.828 Y174.908
M3   ; pen DOWN (one 90deg pulse of the one-way gear motor)
G4 P0.350   ; wait for the 90deg rotation to finish
G1 F900
G1 X162.832 Y175.255
G1 X162.836 Y175.602
G1 X162.841 Y175.949
G1 X162.847 Y176.296
G1 X162.852 Y176.644
G1 X162.839 Y176.990
G1 X162.756 Y177.326
G1 X162.632 Y177.650
G1 X162.561 Y177.989
G1 X162.530 Y178.335
G1 X162.506 Y178.681
G1 X162.477 Y179.027
G1 X162.452 Y179.373
M5   ; pen UP (one 90deg pulse of the one-way gear motor)
G4 P0.350   ; wait for the 90deg rotation to finish
G0 X169.168 Y176.945
M3   ; pen DOWN (one 90deg pulse of the one-way gear motor)
G4 P0.350   ; wait for the 90deg rotation to finish
G1 F900
G1 X169.522 Y176.972
G1 X169.877 Y176.999
G1 X170.232 Y177.026
G1 X170.586 Y177.052
G1 X170.941 Y177.079
G1 X171.295 Y177.106
G1 X171.650 Y177.133
M5   ; pen UP (one 90deg pulse of the one-way gear motor)
G4 P0.350   ; wait for the 90deg rotation to finish
G0 X172.603 Y176.976
M3   ; pen DOWN (one 90deg pulse of the one-way gear motor)
G4 P0.350   ; wait for the 90deg rotation to finish
G1 F900
G1 X172.603 Y176.618
G1 X172.603 Y176.260
G1 X172.603 Y175.902
G1 X172.603 Y175.544
G1 X172.603 Y175.186
G1 X172.603 Y174.828
G1 X172.603 Y174.470
G1 X172.603 Y174.112
G1 X172.603 Y173.754
G1 X172.603 Y173.396
M5   ; pen UP (one 90deg pulse of the one-way gear motor)
G4 P0.350   ; wait for the 90deg rotation to finish
G0 X171.696 Y174.299
M3   ; pen DOWN (one 90deg pulse of the one-way gear motor)
G4 P0.350   ; wait for the 90deg rotation to finish
G1 F900
G1 X171.342 Y174.293
G1 X170.988 Y174.288
G1 X170.635 Y174.308
G1 X170.358 Y174.502
G1 X170.291 Y174.845
G1 X170.283 Y175.199
G1 X170.277 Y175.553
G1 X170.272 Y175.907
G1 X170.266 Y176.261
G1 X170.260 Y176.615
G1 X170.254 Y176.969
G1 X170.249 Y177.323
G1 X170.243 Y177.677
G1 X170.237 Y178.031
G1 X170.232 Y178.385
G1 X170.226 Y178.739
G1 X170.220 Y179.093
M5   ; pen UP (one 90deg pulse of the one-way gear motor)
G4 P0.350   ; wait for the 90deg rotation to finish
G0 X172.603 Y178.105
M3   ; pen DOWN (one 90deg pulse of the one-way gear motor)
G4 P0.350   ; wait for the 90deg rotation to finish
G1 F900
G1 X172.603 Y177.983
M5   ; pen UP (one 90deg pulse of the one-way gear motor)
G4 P0.350   ; wait for the 90deg rotation to finish
G0 X174.715 Y178.158
M3   ; pen DOWN (one 90deg pulse of the one-way gear motor)
G4 P0.350   ; wait for the 90deg rotation to finish
G1 F900
G1 X174.788 Y177.820
G1 X174.752 Y177.475
G1 X174.761 Y177.128
G1 X174.818 Y176.785
G1 X174.831 Y176.437
G1 X174.829 Y176.089
G1 X174.828 Y175.741
G1 X174.826 Y175.393
M5   ; pen UP (one 90deg pulse of the one-way gear motor)
G4 P0.350   ; wait for the 90deg rotation to finish
G0 X173.076 Y175.276
M3   ; pen DOWN (one 90deg pulse of the one-way gear motor)
G4 P0.350   ; wait for the 90deg rotation to finish
G1 F900
G1 X173.120 Y175.617
G1 X173.181 Y175.955
G1 X173.204 Y176.298
G1 X173.207 Y176.641
G1 X173.208 Y176.985
G1 X173.210 Y177.329
G1 X173.215 Y177.672
G1 X173.266 Y178.010
G1 X173.488 Y178.250
G1 X173.819 Y178.340
G1 X174.161 Y178.353
G1 X174.492 Y178.266
G1 X174.824 Y178.179
G1 X175.167 Y178.162
G1 X175.510 Y178.174
G1 X175.832 Y178.077
G1 X176.029 Y177.802
G1 X176.084 Y177.465
G1 X176.095 Y177.121
G1 X176.154 Y176.783
G1 X176.202 Y176.443
G1 X176.206 Y176.100
G1 X176.206 Y175.756
G1 X176.237 Y175.415
G1 X176.464 Y175.179
G1 X176.797 Y175.104
G1 X177.121 Y175.032
G1 X177.426 Y175.191
G1 X177.661 Y175.437
G1 X177.966 Y175.591
G1 X178.272 Y175.744
G1 X178.536 Y175.963
G1 X178.778 Y176.208
G1 X178.971 Y176.489
G1 X179.069 Y176.817
G1 X179.029 Y177.155
G1 X178.879 Y177.462
G1 X178.652 Y177.718
G1 X178.367 Y177.906
G1 X178.033 Y177.935
G1 X177.739 Y177.764
G1 X177.582 Y177.466
G1 X177.519 Y177.129
G1 X177.472 Y176.788
G1 X177.422 Y176.448
G1 X177.375 Y176.108
G1 X177.342 Y175.766
G1 X177.407 Y175.433
G1 X177.554 Y175.122
G1 X177.692 Y174.808
G1 X177.887 Y174.526
G1 X178.171 Y174.347
G1 X178.512 Y174.330
G1 X178.855 Y174.354
G1 X179.198 Y174.378
G1 X179.540 Y174.404
G1 X179.883 Y174.431
M5   ; pen UP (one 90deg pulse of the one-way gear motor)
G4 P0.350   ; wait for the 90deg rotation to finish
G0 X177.593 Y175.347
M3   ; pen DOWN (one 90deg pulse of the one-way gear motor)
G4 P0.350   ; wait for the 90deg rotation to finish
G1 F900
G1 X177.439 Y175.198
M5   ; pen UP (one 90deg pulse of the one-way gear motor)
G4 P0.350   ; wait for the 90deg rotation to finish
G0 X183.217 Y176.964
M3   ; pen DOWN (one 90deg pulse of the one-way gear motor)
G4 P0.350   ; wait for the 90deg rotation to finish
G1 F900
G1 X183.564 Y176.955
G1 X183.911 Y176.945
G1 X184.258 Y176.935
G1 X184.605 Y176.925
G1 X184.952 Y176.925
G1 X185.295 Y176.974
G1 X185.636 Y177.029
G1 X185.974 Y176.949
G1 X186.313 Y176.873
G1 X186.629 Y176.896
G1 X186.872 Y177.144
G1 X187.116 Y177.391
G1 X187.359 Y177.639
G1 X186.973 Y177.571
G1 X186.705 Y177.357
G1 X186.588 Y177.033
G1 X186.555 Y176.688
G1 X186.542 Y176.341
G1 X186.606 Y176.001
G1 X186.641 Y175.655
G1 X186.714 Y175.316
G1 X186.802 Y174.981
G1 X186.958 Y174.676
G1 X187.261 Y174.520
G1 X187.601 Y174.556
G1 X187.934 Y174.654
G1 X188.242 Y174.809
G1 X188.445 Y175.089
G1 X188.643 Y175.375
G1 X188.785 Y175.689
G1 X188.866 Y176.026
G1 X189.043 Y176.210
G1 X189.383 Y176.141
G1 X189.724 Y176.072
G1 X190.064 Y176.004
G1 X190.405 Y175.938
G1 X190.734 Y175.938
G1 X191.013 Y176.145
G1 X191.291 Y176.352
G1 X191.570 Y176.560
G1 X191.848 Y176.767
G1 X192.127 Y176.974
G1 X192.406 Y177.181
G1 X192.065 Y177.190
G1 X191.718 Y177.196
G1 X191.371 Y177.203
G1 X191.025 Y177.182
G1 X190.704 Y177.058
G1 X190.432 Y176.845
G1 X190.256 Y176.548
G1 X190.163 Y176.215
G1 X190.197 Y175.872
G1 X190.249 Y175.530
G1 X190.275 Y175.184
G1 X190.394 Y174.860
G1 X190.647 Y174.638
G1 X190.988 Y174.586
G1 X191.335 Y174.580
G1 X191.680 Y174.611
G1 X192.018 Y174.689
G1 X192.363 Y174.715
M5   ; pen UP (one 90deg pulse of the one-way gear motor)
G4 P0.350   ; wait for the 90deg rotation to finish
G0 X192.661 Y174.401
M3   ; pen DOWN (one 90deg pulse of the one-way gear motor)
G4 P0.350   ; wait for the 90deg rotation to finish
G1 F900
G1 X192.448 Y174.684
G1 X192.374 Y175.028
G1 X192.375 Y175.384
G1 X192.382 Y175.739
G1 X192.389 Y176.095
G1 X192.395 Y176.451
G1 X192.402 Y176.806
G1 X192.408 Y177.162
G1 X192.415 Y177.518
G1 X192.421 Y177.874
G1 X192.428 Y178.229
G1 X192.434 Y178.585
G1 X192.439 Y178.941
G1 X192.409 Y179.294
G1 X192.454 Y179.641
M5   ; pen UP (one 90deg pulse of the one-way gear motor)
G4 P0.350   ; wait for the 90deg rotation to finish
G0 X188.705 Y177.303
M3   ; pen DOWN (one 90deg pulse of the one-way gear motor)
G4 P0.350   ; wait for the 90deg rotation to finish
G1 F900
G1 X188.455 Y177.757
M5   ; pen UP (one 90deg pulse of the one-way gear motor)
G4 P0.350   ; wait for the 90deg rotation to finish
G0 X184.417 Y176.931
M3   ; pen DOWN (one 90deg pulse of the one-way gear motor)
G4 P0.350   ; wait for the 90deg rotation to finish
G1 F900
G1 X184.286 Y176.934
M5   ; pen UP (one 90deg pulse of the one-way gear motor)
G4 P0.350   ; wait for the 90deg rotation to finish
G0 X184.071 Y178.852
M3   ; pen DOWN (one 90deg pulse of the one-way gear motor)
G4 P0.350   ; wait for the 90deg rotation to finish
G1 F900
G1 X184.189 Y178.527
G1 X184.186 Y178.179
G1 X184.180 Y177.831
G1 X184.216 Y177.486
G1 X184.298 Y177.148
G1 X184.383 Y176.811
G1 X184.404 Y176.464
G1 X184.394 Y176.116
G1 X184.384 Y175.769
G1 X184.377 Y175.421
G1 X184.413 Y175.075
G1 X184.472 Y174.733
G1 X184.480 Y174.385
M5   ; pen UP (one 90deg pulse of the one-way gear motor)
G4 P0.350   ; wait for the 90deg rotation to finish
G0 X196.520 Y174.641
M3   ; pen DOWN (one 90deg pulse of the one-way gear motor)
G4 P0.350   ; wait for the 90deg rotation to finish
G1 F900
G1 X196.200 Y174.510
G1 X195.855 Y174.469
G1 X195.513 Y174.408
G1 X195.168 Y174.393
G1 X194.855 Y174.525
G1 X194.691 Y174.822
G1 X194.607 Y175.160
G1 X194.510 Y175.493
G1 X194.469 Y175.838
G1 X194.491 Y176.184
G1 X194.573 Y176.522
G1 X194.641 Y176.862
G1 X194.781 Y177.177
G1 X195.086 Y177.318
G1 X195.419 Y177.228
G1 X195.669 Y176.992
G1 X195.911 Y176.744
G1 X196.175 Y176.519
G1 X196.364 Y176.233
G1 X196.420 Y175.890
G1 X196.449 Y175.544
G1 X196.477 Y175.197
G1 X196.515 Y174.852
G1 X196.610 Y174.519
G1 X196.793 Y174.225
G1 X197.124 Y174.131
M5   ; pen UP (one 90deg pulse of the one-way gear motor)
G4 P0.350   ; wait for the 90deg rotation to finish
G0 X197.965 Y171.642
M3   ; pen DOWN (one 90deg pulse of the one-way gear motor)
G4 P0.350   ; wait for the 90deg rotation to finish
G1 F900
G1 X198.295 Y171.529
G1 X198.639 Y171.472
G1 X198.987 Y171.478
G1 X199.322 Y171.568
G1 X199.608 Y171.765
G1 X199.796 Y172.057
G1 X199.896 Y172.390
G1 X199.936 Y172.737
G1 X199.967 Y173.085
G1 X199.988 Y173.434
G1 X200.000 Y173.783
G1 X199.996 Y174.132
G1 X199.994 Y174.481
G1 X199.954 Y174.828
G1 X199.906 Y175.174
G1 X199.892 Y175.523
G1 X199.891 Y175.872
G1 X199.891 Y176.221
G1 X199.892 Y176.570
G1 X199.892 Y176.920
M5   ; pen UP (one 90deg pulse of the one-way gear motor)
G4 P0.350   ; wait for the 90deg rotation to finish
G0 X198.414 Y176.628
M3   ; pen DOWN (one 90deg pulse of the one-way gear motor)
G4 P0.350   ; wait for the 90deg rotation to finish
G1 F900
G1 X198.438 Y176.280
G1 X198.459 Y175.931
G1 X198.481 Y175.582
G1 X198.506 Y175.233
G1 X198.541 Y174.885
G1 X198.641 Y174.553
G1 X198.868 Y174.294
G1 X199.192 Y174.168
G1 X199.539 Y174.136
G1 X199.889 Y174.131
M5   ; pen UP (one 90deg pulse of the one-way gear motor)
G4 P0.350   ; wait for the 90deg rotation to finish
G0 X105.145 Y177.642
M3   ; pen DOWN (one 90deg pulse of the one-way gear motor)
G4 P0.350   ; wait for the 90deg rotation to finish
G1 F900
G1 X104.805 Y177.603
G1 X104.500 Y177.449
G1 X104.199 Y177.283
G1 X103.888 Y177.138
G1 X103.637 Y176.909
M5   ; pen UP (one 90deg pulse of the one-way gear motor)
G4 P0.350   ; wait for the 90deg rotation to finish
G0 X101.887 Y177.100
M3   ; pen DOWN (one 90deg pulse of the one-way gear motor)
G4 P0.350   ; wait for the 90deg rotation to finish
G1 F900
G1 X101.686 Y176.929
M5   ; pen UP (one 90deg pulse of the one-way gear motor)
G4 P0.350   ; wait for the 90deg rotation to finish
G0 X101.618 Y178.955
M3   ; pen DOWN (one 90deg pulse of the one-way gear motor)
G4 P0.350   ; wait for the 90deg rotation to finish
G1 F900
G1 X101.688 Y178.618
G1 X101.691 Y178.273
G1 X101.688 Y177.928
G1 X101.684 Y177.584
G1 X101.711 Y177.240
G1 X101.711 Y176.895
G1 X101.696 Y176.550
G1 X101.676 Y176.206
G1 X101.633 Y175.864
G1 X101.604 Y175.521
G1 X101.632 Y175.178
G1 X101.644 Y174.833
G1 X101.738 Y174.510
G1 X101.979 Y174.279
G1 X102.321 Y174.275
G1 X102.660 Y174.235
M5   ; pen UP (one 90deg pulse of the one-way gear motor)
G4 P0.350   ; wait for the 90deg rotation to finish
G0 X78.159 Y174.963
M3   ; pen DOWN (one 90deg pulse of the one-way gear motor)
G4 P0.350   ; wait for the 90deg rotation to finish
G1 F900
G1 X78.059 Y175.287
G1 X78.021 Y175.623
G1 X78.017 Y175.963
G1 X78.018 Y176.303
G1 X78.018 Y176.643
G1 X78.018 Y176.982
G1 X78.019 Y177.322
G1 X78.034 Y177.661
G1 X78.062 Y177.999
G1 X77.958 Y178.320
G1 X77.860 Y178.645
G1 X77.838 Y178.983
G1 X77.870 Y179.321
G1 X77.878 Y179.660
G1 X77.879 Y180.000
M5   ; pen UP (one 90deg pulse of the one-way gear motor)
G4 P0.350   ; wait for the 90deg rotation to finish
G0 X74.270 Y178.359
M3   ; pen DOWN (one 90deg pulse of the one-way gear motor)
G4 P0.350   ; wait for the 90deg rotation to finish
G1 F900
G1 X74.294 Y178.023
G1 X74.323 Y177.687
G1 X74.348 Y177.350
G1 X74.378 Y177.014
G1 X74.449 Y176.685
G1 X74.572 Y176.371
G1 X74.654 Y176.045
G1 X74.667 Y175.708
G1 X74.662 Y175.371
G1 X74.657 Y175.033
G1 X74.652 Y174.696
G1 X74.648 Y174.358
G1 X74.644 Y174.021
M5   ; pen UP (one 90deg pulse of the one-way gear motor)
G4 P0.350   ; wait for the 90deg rotation to finish
G0 X74.529 Y176.179
M3   ; pen DOWN (one 90deg pulse of the one-way gear motor)
G4 P0.350   ; wait for the 90deg rotation to finish
G1 F900
G1 X74.676 Y176.325
M5   ; pen UP (one 90deg pulse of the one-way gear motor)
G4 P0.350   ; wait for the 90deg rotation to finish
G0 X10.000 Y180.000   ; park
M2
