; Handwriting-Robot G-code -- yeukita
; author=yeukita strokes=74 scale=0.952
; steps/mm  X=80.000  Y=80.000 (3200 microsteps/rev)
; pen: one-way gear motor, M5=up M3=down, each = one 90deg pulse
G21   ; millimetres
G90   ; absolute
G0 F2400
G0 X10.164 Y173.945
M3   ; pen DOWN (one 90deg pulse of the one-way gear motor)
G4 P0.350   ; wait for the 90deg rotation to finish
G1 F900
G1 X10.143 Y174.283
G1 X10.126 Y174.622
G1 X10.105 Y174.960
G1 X10.085 Y175.299
G1 X10.068 Y175.637
G1 X10.047 Y175.976
G1 X10.026 Y176.314
G1 X10.006 Y176.653
G1 X10.000 Y176.992
G1 X10.082 Y177.320
G1 X10.142 Y177.652
G1 X10.239 Y177.971
G1 X10.538 Y178.110
G1 X10.868 Y178.053
G1 X11.129 Y177.843
G1 X11.315 Y177.560
G1 X11.560 Y177.333
G1 X11.867 Y177.189
M5   ; pen UP (one 90deg pulse of the one-way gear motor)
G4 P0.350   ; wait for the 90deg rotation to finish
G0 X12.013 Y174.673
M3   ; pen DOWN (one 90deg pulse of the one-way gear motor)
G4 P0.350   ; wait for the 90deg rotation to finish
G1 F900
G1 X11.993 Y175.006
G1 X11.972 Y175.339
G1 X11.948 Y175.671
G1 X11.881 Y175.998
G1 X11.805 Y176.322
G1 X11.787 Y176.655
G1 X11.840 Y176.984
G1 X11.970 Y177.287
G1 X12.198 Y177.528
G1 X12.290 Y177.847
G1 X12.409 Y178.157
G1 X12.634 Y178.398
G1 X12.949 Y178.484
G1 X13.271 Y178.415
G1 X13.478 Y178.162
G1 X13.602 Y177.852
G1 X13.723 Y177.543
G1 X13.778 Y177.214
G1 X13.868 Y176.893
G1 X13.933 Y176.566
G1 X13.969 Y176.234
G1 X14.006 Y175.902
G1 X14.039 Y175.570
G1 X14.075 Y175.239
G1 X14.109 Y174.907
G1 X14.146 Y174.575
G1 X14.243 Y174.258
G1 X14.455 Y174.003
G1 X14.631 Y173.724
G1 X14.736 Y173.407
M5   ; pen UP (one 90deg pulse of the one-way gear motor)
G4 P0.350   ; wait for the 90deg rotation to finish
G0 X14.183 Y174.201
M3   ; pen DOWN (one 90deg pulse of the one-way gear motor)
G4 P0.350   ; wait for the 90deg rotation to finish
G1 F900
G1 X13.820 Y173.958
M5   ; pen UP (one 90deg pulse of the one-way gear motor)
G4 P0.350   ; wait for the 90deg rotation to finish
G0 X13.350 Y173.402
M3   ; pen DOWN (one 90deg pulse of the one-way gear motor)
G4 P0.350   ; wait for the 90deg rotation to finish
G1 F900
G1 X13.296 Y173.098
G1 X13.351 Y172.795
G1 X13.435 Y172.497
M5   ; pen UP (one 90deg pulse of the one-way gear motor)
G4 P0.350   ; wait for the 90deg rotation to finish
G0 X15.253 Y171.733
M3   ; pen DOWN (one 90deg pulse of the one-way gear motor)
G4 P0.350   ; wait for the 90deg rotation to finish
G1 F900
G1 X15.569 Y171.623
G1 X15.898 Y171.569
G1 X16.232 Y171.574
G1 X16.553 Y171.663
G1 X16.824 Y171.855
G1 X17.002 Y172.136
G1 X17.096 Y172.456
G1 X17.135 Y172.789
G1 X17.164 Y173.122
G1 X17.185 Y173.457
G1 X17.196 Y173.791
G1 X17.194 Y174.126
G1 X17.191 Y174.461
G1 X17.153 Y174.794
G1 X17.108 Y175.125
G1 X17.096 Y175.460
G1 X17.096 Y175.795
G1 X17.097 Y176.130
G1 X17.098 Y176.465
G1 X17.099 Y176.800
M5   ; pen UP (one 90deg pulse of the one-way gear motor)
G4 P0.350   ; wait for the 90deg rotation to finish
G0 X15.688 Y176.522
M3   ; pen DOWN (one 90deg pulse of the one-way gear motor)
G4 P0.350   ; wait for the 90deg rotation to finish
G1 F900
G1 X15.711 Y176.188
G1 X15.730 Y175.853
G1 X15.750 Y175.519
G1 X15.773 Y175.184
G1 X15.806 Y174.851
G1 X15.900 Y174.532
G1 X16.114 Y174.281
G1 X16.423 Y174.158
G1 X16.756 Y174.126
G1 X17.091 Y174.121
M5   ; pen UP (one 90deg pulse of the one-way gear motor)
G4 P0.350   ; wait for the 90deg rotation to finish
G0 X23.222 Y173.547
M3   ; pen DOWN (one 90deg pulse of the one-way gear motor)
G4 P0.350   ; wait for the 90deg rotation to finish
G1 F900
G1 X23.246 Y173.881
G1 X23.266 Y174.216
G1 X23.291 Y174.550
G1 X23.315 Y174.884
G1 X23.340 Y175.218
G1 X23.362 Y175.552
G1 X23.418 Y175.881
G1 X23.618 Y176.145
G1 X23.894 Y176.334
G1 X24.180 Y176.508
G1 X24.488 Y176.636
G1 X24.819 Y176.643
G1 X25.147 Y176.575
G1 X25.474 Y176.500
G1 X25.798 Y176.416
G1 X26.123 Y176.332
G1 X26.447 Y176.249
G1 X26.772 Y176.166
G1 X27.096 Y176.152
G1 X27.418 Y176.243
G1 X27.740 Y176.334
G1 X28.063 Y176.426
G1 X28.385 Y176.517
G1 X28.396 Y176.656
G1 X28.114 Y176.837
G1 X27.836 Y177.023
G1 X27.526 Y177.144
G1 X27.194 Y177.184
G1 X26.860 Y177.210
G1 X26.532 Y177.154
G1 X26.285 Y176.943
G1 X26.158 Y176.634
G1 X26.104 Y176.305
G1 X26.082 Y175.971
G1 X26.052 Y175.638
G1 X26.107 Y175.309
G1 X26.215 Y174.992
G1 X26.386 Y174.706
G1 X26.624 Y174.472
G1 X26.915 Y174.310
G1 X27.248 Y174.281
G1 X27.583 Y174.291
G1 X27.905 Y174.374
G1 X28.141 Y174.608
G1 X28.278 Y174.910
G1 X28.328 Y175.241
G1 X28.437 Y175.556
G1 X28.643 Y175.737
G1 X28.954 Y175.612
G1 X29.268 Y175.497
G1 X29.560 Y175.509
G1 X29.732 Y175.796
G1 X29.904 Y176.084
G1 X30.076 Y176.371
G1 X30.248 Y176.659
G1 X30.419 Y176.947
G1 X30.698 Y177.128
G1 X31.011 Y177.247
G1 X31.340 Y177.307
G1 X31.673 Y177.327
G1 X31.987 Y177.222
G1 X32.243 Y177.010
G1 X32.387 Y176.710
G1 X32.483 Y176.390
G1 X32.587 Y176.072
G1 X32.587 Y175.740
G1 X32.488 Y175.420
G1 X32.398 Y175.098
G1 X32.236 Y174.808
G1 X31.977 Y174.601
G1 X31.646 Y174.562
G1 X31.323 Y174.638
G1 X31.026 Y174.790
G1 X30.713 Y174.908
G1 X30.447 Y175.108
M5   ; pen UP (one 90deg pulse of the one-way gear motor)
G4 P0.350   ; wait for the 90deg rotation to finish
G0 X30.180 Y174.538
M3   ; pen DOWN (one 90deg pulse of the one-way gear motor)
G4 P0.350   ; wait for the 90deg rotation to finish
G1 F900
G1 X30.225 Y174.873
G1 X30.377 Y175.176
G1 X30.438 Y175.507
G1 X30.438 Y175.847
G1 X30.434 Y176.188
G1 X30.428 Y176.528
G1 X30.390 Y176.865
G1 X30.244 Y177.172
G1 X30.155 Y177.497
G1 X30.142 Y177.837
G1 X30.138 Y178.177
G1 X30.134 Y178.517
M5   ; pen UP (one 90deg pulse of the one-way gear motor)
G4 P0.350   ; wait for the 90deg rotation to finish
G0 X34.285 Y176.096
M3   ; pen DOWN (one 90deg pulse of the one-way gear motor)
G4 P0.350   ; wait for the 90deg rotation to finish
G1 F900
G1 X34.258 Y175.759
G1 X34.232 Y175.422
G1 X34.208 Y175.085
G1 X34.202 Y174.748
G1 X34.241 Y174.413
G1 X34.330 Y174.087
G1 X34.473 Y173.783
G1 X34.733 Y173.576
G1 X35.066 Y173.529
G1 X35.404 Y173.529
G1 X35.739 Y173.568
G1 X36.050 Y173.695
G1 X36.314 Y173.903
G1 X36.499 Y174.184
G1 X36.592 Y174.508
G1 X36.626 Y174.844
G1 X36.616 Y175.181
G1 X36.563 Y175.514
G1 X36.476 Y175.841
G1 X36.348 Y176.153
G1 X36.172 Y176.441
G1 X35.927 Y176.672
G1 X35.628 Y176.823
G1 X35.302 Y176.912
M5   ; pen UP (one 90deg pulse of the one-way gear motor)
G4 P0.350   ; wait for the 90deg rotation to finish
G0 X37.568 Y176.720
M3   ; pen DOWN (one 90deg pulse of the one-way gear motor)
G4 P0.350   ; wait for the 90deg rotation to finish
G1 F900
G1 X37.886 Y176.763
G1 X38.205 Y176.756
G1 X38.524 Y176.737
G1 X38.843 Y176.763
G1 X39.156 Y176.830
G1 X39.476 Y176.851
G1 X39.796 Y176.867
M5   ; pen UP (one 90deg pulse of the one-way gear motor)
G4 P0.350   ; wait for the 90deg rotation to finish
G0 X38.771 Y176.660
M3   ; pen DOWN (one 90deg pulse of the one-way gear motor)
G4 P0.350   ; wait for the 90deg rotation to finish
G1 F900
G1 X38.585 Y176.485
M5   ; pen UP (one 90deg pulse of the one-way gear motor)
G4 P0.350   ; wait for the 90deg rotation to finish
G0 X38.444 Y178.469
M3   ; pen DOWN (one 90deg pulse of the one-way gear motor)
G4 P0.350   ; wait for the 90deg rotation to finish
G1 F900
G1 X38.523 Y178.142
G1 X38.539 Y177.806
G1 X38.549 Y177.469
G1 X38.559 Y177.132
G1 X38.596 Y176.797
G1 X38.611 Y176.461
G1 X38.609 Y176.124
G1 X38.604 Y175.787
G1 X38.576 Y175.451
G1 X38.559 Y175.115
G1 X38.599 Y174.780
G1 X38.624 Y174.444
G1 X38.716 Y174.128
G1 X38.954 Y173.900
G1 X39.288 Y173.909
G1 X39.620 Y173.881
M5   ; pen UP (one 90deg pulse of the one-way gear motor)
G4 P0.350   ; wait for the 90deg rotation to finish
G0 X46.829 Y173.625
M3   ; pen DOWN (one 90deg pulse of the one-way gear motor)
G4 P0.350   ; wait for the 90deg rotation to finish
G1 F900
G1 X46.498 Y173.634
G1 X46.167 Y173.642
G1 X45.836 Y173.656
G1 X45.523 Y173.751
G1 X45.290 Y173.982
G1 X45.147 Y174.278
G1 X45.107 Y174.605
G1 X45.118 Y174.937
G1 X45.185 Y175.261
G1 X45.271 Y175.581
G1 X45.360 Y175.899
G1 X45.517 Y176.189
G1 X45.720 Y176.451
G1 X45.922 Y176.713
G1 X46.181 Y176.918
M5   ; pen UP (one 90deg pulse of the one-way gear motor)
G4 P0.350   ; wait for the 90deg rotation to finish
G0 X48.287 Y176.130
M3   ; pen DOWN (one 90deg pulse of the one-way gear motor)
G4 P0.350   ; wait for the 90deg rotation to finish
G1 F900
G1 X48.259 Y175.794
G1 X48.232 Y175.457
G1 X48.206 Y175.121
G1 X48.199 Y174.783
G1 X48.237 Y174.448
G1 X48.325 Y174.123
G1 X48.467 Y173.819
G1 X48.725 Y173.611
G1 X49.058 Y173.563
G1 X49.396 Y173.561
G1 X49.731 Y173.599
G1 X50.042 Y173.725
G1 X50.306 Y173.932
G1 X50.492 Y174.212
G1 X50.586 Y174.535
G1 X50.621 Y174.870
G1 X50.612 Y175.207
G1 X50.560 Y175.541
G1 X50.475 Y175.867
G1 X50.348 Y176.179
G1 X50.173 Y176.467
G1 X49.930 Y176.699
G1 X49.631 Y176.852
G1 X49.306 Y176.941
M5   ; pen UP (one 90deg pulse of the one-way gear motor)
G4 P0.350   ; wait for the 90deg rotation to finish
G0 X52.142 Y174.774
M3   ; pen DOWN (one 90deg pulse of the one-way gear motor)
G4 P0.350   ; wait for the 90deg rotation to finish
G1 F900
G1 X52.479 Y174.777
G1 X52.815 Y174.781
G1 X53.151 Y174.785
G1 X53.484 Y174.825
G1 X53.770 Y174.988
G1 X53.940 Y175.275
G1 X54.053 Y175.592
G1 X54.108 Y175.922
G1 X54.084 Y176.257
G1 X54.011 Y176.585
G1 X53.861 Y176.885
G1 X53.710 Y177.186
G1 X53.502 Y177.438
G1 X53.175 Y177.513
G1 X52.842 Y177.477
G1 X52.564 Y177.296
G1 X52.369 Y177.023
G1 X52.192 Y176.737
G1 X52.054 Y176.430
G1 X51.990 Y176.101
G1 X51.955 Y175.766
G1 X51.944 Y175.430
G1 X52.004 Y175.101
G1 X52.044 Y174.769
G1 X51.991 Y174.437
G1 X51.988 Y174.102
G1 X52.032 Y173.769
G1 X52.057 Y173.434
G1 X52.114 Y173.104
G1 X52.195 Y172.781
M5   ; pen UP (one 90deg pulse of the one-way gear motor)
G4 P0.350   ; wait for the 90deg rotation to finish
G0 X55.780 Y174.211
M3   ; pen DOWN (one 90deg pulse of the one-way gear motor)
G4 P0.350   ; wait for the 90deg rotation to finish
G1 F900
G1 X55.824 Y174.522
G1 X55.893 Y174.828
G1 X55.926 Y175.140
G1 X55.935 Y175.453
G1 X55.943 Y175.767
G1 X55.951 Y176.081
G1 X55.959 Y176.395
M5   ; pen UP (one 90deg pulse of the one-way gear motor)
G4 P0.350   ; wait for the 90deg rotation to finish
G0 X55.919 Y174.813
M3   ; pen DOWN (one 90deg pulse of the one-way gear motor)
G4 P0.350   ; wait for the 90deg rotation to finish
G1 F900
G1 X56.239 Y174.711
G1 X56.573 Y174.679
G1 X56.909 Y174.664
G1 X57.241 Y174.616
G1 X57.570 Y174.551
G1 X57.879 Y174.639
G1 X57.924 Y174.958
G1 X57.882 Y175.291
G1 X57.812 Y175.619
G1 X57.664 Y175.920
G1 X57.523 Y176.225
G1 X57.453 Y176.551
G1 X57.546 Y176.864
G1 X57.804 Y177.078
M5   ; pen UP (one 90deg pulse of the one-way gear motor)
G4 P0.350   ; wait for the 90deg rotation to finish
G0 X58.801 Y176.784
M3   ; pen DOWN (one 90deg pulse of the one-way gear motor)
G4 P0.350   ; wait for the 90deg rotation to finish
G1 F900
G1 X58.821 Y176.438
G1 X58.840 Y176.093
G1 X58.859 Y175.748
G1 X58.878 Y175.402
G1 X58.898 Y175.057
G1 X58.917 Y174.712
G1 X58.936 Y174.366
M5   ; pen UP (one 90deg pulse of the one-way gear motor)
G4 P0.350   ; wait for the 90deg rotation to finish
G0 X58.366 Y173.915
M3   ; pen DOWN (one 90deg pulse of the one-way gear motor)
G4 P0.350   ; wait for the 90deg rotation to finish
G1 F900
G1 X58.594 Y174.143
G1 X58.896 Y174.259
G1 X59.220 Y174.252
G1 X59.544 Y174.217
G1 X59.870 Y174.212
G1 X60.195 Y174.229
G1 X60.500 Y174.337
G1 X60.749 Y174.545
G1 X60.933 Y174.812
M5   ; pen UP (one 90deg pulse of the one-way gear motor)
G4 P0.350   ; wait for the 90deg rotation to finish
G0 X61.271 Y173.991
M3   ; pen DOWN (one 90deg pulse of the one-way gear motor)
G4 P0.350   ; wait for the 90deg rotation to finish
G1 F900
G1 X61.592 Y173.905
G1 X61.920 Y173.851
G1 X62.252 Y173.848
G1 X62.579 Y173.908
G1 X62.819 Y174.066
G1 X62.893 Y174.389
G1 X62.924 Y174.720
G1 X62.848 Y175.044
G1 X62.749 Y175.362
G1 X62.643 Y175.676
G1 X62.483 Y175.968
G1 X62.401 Y176.288
G1 X62.412 Y176.619
G1 X62.491 Y176.924
G1 X62.714 Y177.164
M5   ; pen UP (one 90deg pulse of the one-way gear motor)
G4 P0.350   ; wait for the 90deg rotation to finish
G0 X60.226 Y177.533
M3   ; pen DOWN (one 90deg pulse of the one-way gear motor)
G4 P0.350   ; wait for the 90deg rotation to finish
G1 F900
G1 X59.900 Y177.490
G1 X59.612 Y177.332
G1 X59.328 Y177.163
G1 X59.033 Y177.014
G1 X58.801 Y176.784
M5   ; pen UP (one 90deg pulse of the one-way gear motor)
G4 P0.350   ; wait for the 90deg rotation to finish
G0 X69.411 Y177.911
M3   ; pen DOWN (one 90deg pulse of the one-way gear motor)
G4 P0.350   ; wait for the 90deg rotation to finish
G1 F900
G1 X69.723 Y178.016
G1 X70.054 Y178.026
G1 X70.381 Y177.981
G1 X70.685 Y177.851
G1 X70.855 Y177.577
G1 X70.897 Y177.249
G1 X70.972 Y176.926
G1 X70.996 Y176.596
G1 X70.995 Y176.264
G1 X70.993 Y175.933
G1 X70.974 Y175.603
G1 X70.858 Y175.294
M5   ; pen UP (one 90deg pulse of the one-way gear motor)
G4 P0.350   ; wait for the 90deg rotation to finish
G0 X70.992 Y175.697
M3   ; pen DOWN (one 90deg pulse of the one-way gear motor)
G4 P0.350   ; wait for the 90deg rotation to finish
G1 F900
G1 X71.389 Y175.696
M5   ; pen UP (one 90deg pulse of the one-way gear motor)
G4 P0.350   ; wait for the 90deg rotation to finish
G0 X69.399 Y175.168
M3   ; pen DOWN (one 90deg pulse of the one-way gear motor)
G4 P0.350   ; wait for the 90deg rotation to finish
G1 F900
G1 X69.302 Y175.474
G1 X69.272 Y175.793
G1 X69.271 Y176.115
G1 X69.272 Y176.436
G1 X69.274 Y176.758
G1 X69.275 Y177.080
G1 X69.280 Y177.401
G1 X69.311 Y177.721
G1 X69.267 Y178.034
G1 X69.153 Y178.334
G1 X69.110 Y178.651
G1 X69.141 Y178.971
G1 X69.153 Y179.292
G1 X69.154 Y179.614
M5   ; pen UP (one 90deg pulse of the one-way gear motor)
G4 P0.350   ; wait for the 90deg rotation to finish
G0 X74.198 Y174.826
M3   ; pen DOWN (one 90deg pulse of the one-way gear motor)
G4 P0.350   ; wait for the 90deg rotation to finish
G1 F900
G1 X73.887 Y174.716
G1 X73.595 Y174.560
G1 X73.313 Y174.387
G1 X72.994 Y174.320
G1 X72.671 Y174.384
G1 X72.386 Y174.550
G1 X72.159 Y174.789
G1 X72.055 Y175.101
G1 X72.069 Y175.429
G1 X72.134 Y175.754
G1 X72.201 Y176.078
G1 X72.268 Y176.402
G1 X72.341 Y176.723
G1 X72.523 Y176.998
G1 X72.723 Y177.262
G1 X72.979 Y177.458
G1 X73.305 Y177.494
G1 X73.633 Y177.453
G1 X73.916 Y177.293
G1 X74.061 Y177.005
G1 X74.077 Y176.675
G1 X74.074 Y176.343
G1 X74.073 Y176.012
G1 X74.106 Y175.684
G1 X74.178 Y175.361
G1 X74.221 Y175.033
G1 X74.349 Y174.731
G1 X74.469 Y174.424
M5   ; pen UP (one 90deg pulse of the one-way gear motor)
G4 P0.350   ; wait for the 90deg rotation to finish
G0 X75.526 Y174.359
M3   ; pen DOWN (one 90deg pulse of the one-way gear motor)
G4 P0.350   ; wait for the 90deg rotation to finish
G1 F900
G1 X75.523 Y174.698
G1 X75.521 Y175.037
G1 X75.518 Y175.376
G1 X75.515 Y175.715
G1 X75.544 Y176.051
G1 X75.614 Y176.382
G1 X75.777 Y176.675
G1 X75.996 Y176.933
G1 X76.272 Y177.122
G1 X76.602 Y177.191
G1 X76.927 Y177.120
G1 X77.149 Y176.870
G1 X77.280 Y176.558
G1 X77.399 Y176.241
G1 X77.510 Y175.921
G1 X77.561 Y175.588
G1 X77.563 Y175.249
G1 X77.579 Y174.911
G1 X77.594 Y174.572
G1 X77.612 Y174.234
M5   ; pen UP (one 90deg pulse of the one-way gear motor)
G4 P0.350   ; wait for the 90deg rotation to finish
G0 X81.123 Y175.295
M3   ; pen DOWN (one 90deg pulse of the one-way gear motor)
G4 P0.350   ; wait for the 90deg rotation to finish
G1 F900
G1 X80.791 Y175.233
G1 X80.459 Y175.174
G1 X80.122 Y175.160
G1 X79.791 Y175.213
G1 X79.497 Y175.372
G1 X79.298 Y175.641
G1 X79.187 Y175.959
G1 X79.129 Y176.291
G1 X79.127 Y176.628
G1 X79.160 Y176.964
G1 X79.214 Y177.297
G1 X79.312 Y177.619
G1 X79.470 Y177.916
G1 X79.713 Y178.149
G1 X80.000 Y178.324
G1 X80.313 Y178.450
G1 X80.644 Y178.513
G1 X80.980 Y178.532
M5   ; pen UP (one 90deg pulse of the one-way gear motor)
G4 P0.350   ; wait for the 90deg rotation to finish
G0 X81.132 Y180.000
M3   ; pen DOWN (one 90deg pulse of the one-way gear motor)
G4 P0.350   ; wait for the 90deg rotation to finish
G1 F900
G1 X81.099 Y179.677
G1 X81.110 Y179.352
G1 X81.116 Y179.028
G1 X81.101 Y178.703
G1 X81.098 Y178.378
G1 X81.116 Y178.053
G1 X81.127 Y177.728
G1 X81.127 Y177.403
G1 X81.127 Y177.078
G1 X81.126 Y176.753
G1 X81.125 Y176.428
G1 X81.125 Y176.103
G1 X81.133 Y175.778
G1 X81.182 Y175.457
G1 X81.296 Y175.153
G1 X81.416 Y174.851
M5   ; pen UP (one 90deg pulse of the one-way gear motor)
G4 P0.350   ; wait for the 90deg rotation to finish
G0 X83.541 Y174.959
M3   ; pen DOWN (one 90deg pulse of the one-way gear motor)
G4 P0.350   ; wait for the 90deg rotation to finish
G1 F900
G1 X83.544 Y175.311
G1 X83.579 Y175.661
G1 X83.590 Y176.012
G1 X83.532 Y176.358
G1 X83.489 Y176.707
G1 X83.489 Y177.058
G1 X83.590 Y177.393
M5   ; pen UP (one 90deg pulse of the one-way gear motor)
G4 P0.350   ; wait for the 90deg rotation to finish
G0 X83.624 Y176.176
M3   ; pen DOWN (one 90deg pulse of the one-way gear motor)
G4 P0.350   ; wait for the 90deg rotation to finish
G1 F900
G1 X83.938 Y176.232
G1 X84.252 Y176.288
G1 X84.568 Y176.331
G1 X84.871 Y176.266
G1 X85.068 Y176.021
G1 X85.198 Y175.730
G1 X85.367 Y175.461
G1 X85.589 Y175.233
G1 X85.744 Y174.957
G1 X85.875 Y174.667
M5   ; pen UP (one 90deg pulse of the one-way gear motor)
G4 P0.350   ; wait for the 90deg rotation to finish
G0 X85.738 Y175.157
M3   ; pen DOWN (one 90deg pulse of the one-way gear motor)
G4 P0.350   ; wait for the 90deg rotation to finish
G1 F900
G1 X85.998 Y175.360
G1 X86.165 Y175.639
G1 X86.200 Y175.967
G1 X86.199 Y176.298
G1 X86.242 Y176.626
G1 X86.308 Y176.950
G1 X86.386 Y177.272
G1 X86.476 Y177.590
G1 X86.508 Y177.919
M5   ; pen UP (one 90deg pulse of the one-way gear motor)
G4 P0.350   ; wait for the 90deg rotation to finish
G0 X90.571 Y177.208
M3   ; pen DOWN (one 90deg pulse of the one-way gear motor)
G4 P0.350   ; wait for the 90deg rotation to finish
G1 F900
G1 X90.252 Y177.255
G1 X89.932 Y177.293
G1 X89.617 Y177.243
G1 X89.335 Y177.091
G1 X89.070 Y176.908
G1 X88.819 Y176.707
G1 X88.650 Y176.438
G1 X88.622 Y176.118
G1 X88.623 Y175.796
G1 X88.620 Y175.474
G1 X88.618 Y175.152
G1 X88.616 Y174.830
G1 X88.617 Y174.508
G1 X88.615 Y174.185
M5   ; pen UP (one 90deg pulse of the one-way gear motor)
G4 P0.350   ; wait for the 90deg rotation to finish
G0 X91.504 Y173.570
M3   ; pen DOWN (one 90deg pulse of the one-way gear motor)
G4 P0.350   ; wait for the 90deg rotation to finish
G1 F900
G1 X91.503 Y173.913
G1 X91.502 Y174.256
G1 X91.500 Y174.599
G1 X91.499 Y174.942
G1 X91.498 Y175.285
G1 X91.497 Y175.628
G1 X91.496 Y175.971
G1 X91.495 Y176.315
G1 X91.494 Y176.658
G1 X91.492 Y177.001
M5   ; pen UP (one 90deg pulse of the one-way gear motor)
G4 P0.350   ; wait for the 90deg rotation to finish
G0 X91.694 Y176.613
M3   ; pen DOWN (one 90deg pulse of the one-way gear motor)
G4 P0.350   ; wait for the 90deg rotation to finish
G1 F900
G1 X92.018 Y176.663
G1 X92.341 Y176.714
G1 X92.664 Y176.768
G1 X92.957 Y176.905
G1 X93.277 Y176.961
G1 X93.603 Y176.984
G1 X93.906 Y177.100
G1 X94.210 Y177.040
G1 X94.534 Y177.025
G1 X94.756 Y177.264
G1 X94.978 Y177.504
G1 X95.267 Y177.642
G1 X95.594 Y177.654
G1 X95.921 Y177.658
G1 X96.248 Y177.663
G1 X96.575 Y177.668
G1 X96.902 Y177.665
G1 X97.203 Y177.550
G1 X97.391 Y177.289
G1 X97.471 Y176.974
G1 X97.503 Y176.648
G1 X97.581 Y176.331
G1 X97.632 Y176.009
G1 X97.643 Y175.682
G1 X97.648 Y175.355
G1 X97.653 Y175.028
G1 X97.657 Y174.700
M5   ; pen UP (one 90deg pulse of the one-way gear motor)
G4 P0.350   ; wait for the 90deg rotation to finish
G0 X98.618 Y175.036
M3   ; pen DOWN (one 90deg pulse of the one-way gear motor)
G4 P0.350   ; wait for the 90deg rotation to finish
G1 F900
G1 X98.660 Y175.367
G1 X98.751 Y175.689
G1 X98.791 Y176.021
G1 X98.801 Y176.356
G1 X98.837 Y176.688
G1 X98.955 Y177.000
G1 X99.055 Y177.319
G1 X99.176 Y177.630
G1 X99.401 Y177.874
G1 X99.705 Y177.999
G1 X100.026 Y177.936
G1 X100.299 Y177.743
G1 X100.504 Y177.482
G1 X100.620 Y177.169
G1 X100.698 Y176.843
G1 X100.771 Y176.516
G1 X100.798 Y176.183
G1 X100.793 Y175.848
G1 X100.767 Y175.514
G1 X100.690 Y175.189
G1 X100.628 Y174.863
G1 X100.711 Y174.539
G1 X100.795 Y174.215
G1 X100.879 Y173.890
G1 X100.962 Y173.566
G1 X101.046 Y173.242
G1 X101.130 Y172.917
G1 X101.330 Y172.731
G1 X101.663 Y172.752
G1 X101.893 Y172.568
G1 X102.134 Y172.340
G1 X102.419 Y172.167
G1 X102.746 Y172.107
G1 X103.081 Y172.112
G1 X103.404 Y172.194
G1 X103.705 Y172.341
G1 X104.000 Y172.498
G1 X104.264 Y172.700
G1 X104.398 Y173.002
G1 X104.450 Y173.333
G1 X104.500 Y173.664
G1 X104.546 Y173.996
G1 X104.523 Y174.329
G1 X104.450 Y174.655
G1 X104.376 Y174.981
G1 X104.382 Y175.315
G1 X104.368 Y175.649
G1 X104.320 Y175.980
G1 X104.330 Y176.314
G1 X104.353 Y176.648
G1 X104.311 Y176.980
G1 X104.210 Y177.298
G1 X103.947 Y177.469
G1 X103.620 Y177.418
G1 X103.297 Y177.330
G1 X103.008 Y177.169
G1 X102.778 Y176.925
G1 X102.552 Y176.680
G1 X102.382 Y176.392
G1 X102.288 Y176.072
G1 X102.248 Y175.740
G1 X102.219 Y175.406
G1 X102.195 Y175.072
G1 X102.246 Y174.746
G1 X102.454 Y174.489
G1 X102.744 Y174.325
G1 X103.074 Y174.321
G1 X103.388 Y174.433
G1 X103.692 Y174.574
G1 X104.010 Y174.677
G1 X104.336 Y174.752
M5   ; pen UP (one 90deg pulse of the one-way gear motor)
G4 P0.350   ; wait for the 90deg rotation to finish
G0 X109.845 Y176.873
M3   ; pen DOWN (one 90deg pulse of the one-way gear motor)
G4 P0.350   ; wait for the 90deg rotation to finish
G1 F900
G1 X110.177 Y176.855
G1 X110.501 Y176.783
G1 X110.831 Y176.746
G1 X111.164 Y176.748
G1 X111.496 Y176.750
G1 X111.829 Y176.744
G1 X112.146 Y176.654
G1 X112.326 Y176.389
G1 X112.474 Y176.092
G1 X112.623 Y175.794
G1 X112.771 Y175.496
G1 X112.963 Y175.230
G1 X113.250 Y175.226
G1 X113.564 Y175.336
G1 X113.707 Y175.570
G1 X113.712 Y175.902
G1 X113.718 Y176.235
G1 X113.723 Y176.567
G1 X113.758 Y176.897
G1 X113.896 Y177.194
G1 X114.145 Y177.412
G1 X114.426 Y177.590
G1 X114.724 Y177.735
G1 X115.050 Y177.796
G1 X115.383 Y177.796
G1 X115.710 Y177.777
G1 X115.972 Y177.572
G1 X116.233 Y177.366
G1 X116.495 Y177.161
G1 X116.815 Y177.141
G1 X117.134 Y177.232
G1 X117.450 Y177.334
G1 X117.311 Y177.306
G1 X117.002 Y177.185
G1 X116.736 Y176.992
G1 X116.613 Y176.687
G1 X116.583 Y176.356
G1 X116.581 Y176.024
G1 X116.655 Y175.701
G1 X116.700 Y175.372
G1 X116.791 Y175.052
G1 X116.901 Y174.739
G1 X117.119 Y174.497
G1 X117.439 Y174.416
G1 X117.763 Y174.479
G1 X118.085 Y174.565
G1 X118.383 Y174.705
G1 X118.593 Y174.963
G1 X118.799 Y175.224
G1 X118.945 Y175.519
G1 X119.031 Y175.841
G1 X119.231 Y176.049
G1 X119.547 Y176.148
G1 X119.798 Y176.367
G1 X120.068 Y176.557
G1 X120.393 Y176.592
G1 X120.724 Y176.573
G1 X121.040 Y176.664
G1 X121.307 Y176.862
G1 X121.616 Y176.966
G1 X121.939 Y176.911
G1 X122.179 Y176.687
G1 X122.322 Y176.388
G1 X122.417 Y176.070
G1 X122.450 Y175.739
G1 X122.490 Y175.410
G1 X122.552 Y175.083
G1 X122.543 Y174.753
G1 X122.435 Y174.440
M5   ; pen UP (one 90deg pulse of the one-way gear motor)
G4 P0.350   ; wait for the 90deg rotation to finish
G0 X120.914 Y174.148
M3   ; pen DOWN (one 90deg pulse of the one-way gear motor)
G4 P0.350   ; wait for the 90deg rotation to finish
G1 F900
G1 X120.917 Y174.494
G1 X120.920 Y174.840
G1 X120.924 Y175.186
G1 X120.912 Y175.532
G1 X120.854 Y175.873
G1 X120.814 Y176.216
G1 X120.810 Y176.562
M5   ; pen UP (one 90deg pulse of the one-way gear motor)
G4 P0.350   ; wait for the 90deg rotation to finish
G0 X119.293 Y177.079
M3   ; pen DOWN (one 90deg pulse of the one-way gear motor)
G4 P0.350   ; wait for the 90deg rotation to finish
G1 F900
G1 X119.297 Y176.762
G1 X119.342 Y176.448
G1 X119.456 Y176.152
G1 X119.524 Y175.844
G1 X119.531 Y175.526
G1 X119.528 Y175.209
G1 X119.535 Y174.892
G1 X119.587 Y174.579
G1 X119.646 Y174.266
M5   ; pen UP (one 90deg pulse of the one-way gear motor)
G4 P0.350   ; wait for the 90deg rotation to finish
G0 X118.843 Y176.967
M3   ; pen DOWN (one 90deg pulse of the one-way gear motor)
G4 P0.350   ; wait for the 90deg rotation to finish
G1 F900
G1 X118.576 Y177.377
M5   ; pen UP (one 90deg pulse of the one-way gear motor)
G4 P0.350   ; wait for the 90deg rotation to finish
G0 X112.356 Y178.233
M3   ; pen DOWN (one 90deg pulse of the one-way gear motor)
G4 P0.350   ; wait for the 90deg rotation to finish
G1 F900
G1 X112.094 Y178.430
G1 X111.775 Y178.541
G1 X111.447 Y178.563
G1 X111.126 Y178.576
G1 X110.955 Y178.299
G1 X110.800 Y178.007
G1 X110.765 Y177.675
G1 X110.687 Y177.350
G1 X110.686 Y177.013
G1 X110.665 Y176.676
G1 X110.693 Y176.341
G1 X110.695 Y176.004
G1 X110.697 Y175.666
G1 X110.699 Y175.329
G1 X110.701 Y174.991
G1 X110.724 Y174.655
G1 X110.720 Y174.318
G1 X110.735 Y173.983
G1 X110.803 Y173.659
M5   ; pen UP (one 90deg pulse of the one-way gear motor)
G4 P0.350   ; wait for the 90deg rotation to finish
G0 X96.624 Y174.833
M3   ; pen DOWN (one 90deg pulse of the one-way gear motor)
G4 P0.350   ; wait for the 90deg rotation to finish
G1 F900
G1 X96.348 Y174.660
G1 X96.044 Y174.550
G1 X95.720 Y174.525
G1 X95.415 Y174.606
G1 X95.270 Y174.889
G1 X95.185 Y175.203
G1 X95.150 Y175.526
G1 X95.142 Y175.852
G1 X95.137 Y176.177
G1 X95.131 Y176.503
G1 X95.091 Y176.825
G1 X95.009 Y177.140
G1 X94.971 Y177.463
G1 X94.965 Y177.788
G1 X94.960 Y178.114
G1 X94.951 Y178.439
G1 X94.895 Y178.759
G1 X94.816 Y179.074
G1 X94.845 Y179.397
G1 X94.937 Y179.709
M5   ; pen UP (one 90deg pulse of the one-way gear motor)
G4 P0.350   ; wait for the 90deg rotation to finish
G0 X92.505 Y178.872
M3   ; pen DOWN (one 90deg pulse of the one-way gear motor)
G4 P0.350   ; wait for the 90deg rotation to finish
G1 F900
G1 X92.540 Y178.552
G1 X92.578 Y178.232
G1 X92.613 Y177.912
G1 X92.653 Y177.593
G1 X92.734 Y177.282
G1 X92.864 Y176.988
G1 X92.956 Y176.681
G1 X92.979 Y176.360
G1 X92.985 Y176.038
G1 X92.990 Y175.716
G1 X92.996 Y175.394
G1 X93.003 Y175.073
G1 X93.010 Y174.751
M5   ; pen UP (one 90deg pulse of the one-way gear motor)
G4 P0.350   ; wait for the 90deg rotation to finish
G0 X92.829 Y176.803
M3   ; pen DOWN (one 90deg pulse of the one-way gear motor)
G4 P0.350   ; wait for the 90deg rotation to finish
G1 F900
G1 X92.968 Y176.947
M5   ; pen UP (one 90deg pulse of the one-way gear motor)
G4 P0.350   ; wait for the 90deg rotation to finish
G0 X91.489 Y177.966
M3   ; pen DOWN (one 90deg pulse of the one-way gear motor)
G4 P0.350   ; wait for the 90deg rotation to finish
G1 F900
G1 X91.489 Y178.083
M5   ; pen UP (one 90deg pulse of the one-way gear motor)
G4 P0.350   ; wait for the 90deg rotation to finish
G0 X127.047 Y176.762
M3   ; pen DOWN (one 90deg pulse of the one-way gear motor)
G4 P0.350   ; wait for the 90deg rotation to finish
G1 F900
G1 X127.376 Y176.809
G1 X127.704 Y176.857
G1 X128.031 Y176.910
G1 X128.326 Y177.055
G1 X128.652 Y177.099
G1 X128.982 Y177.125
G1 X129.285 Y177.255
G1 X129.567 Y177.096
G1 X129.850 Y176.926
G1 X130.174 Y176.995
G1 X130.457 Y177.043
G1 X130.459 Y176.711
G1 X130.465 Y176.380
G1 X130.498 Y176.050
G1 X130.583 Y175.730
G1 X130.721 Y175.433
G1 X130.978 Y175.226
G1 X131.255 Y175.043
G1 X131.576 Y174.974
G1 X131.907 Y174.972
G1 X132.239 Y174.975
G1 X132.570 Y174.986
G1 X132.884 Y175.086
G1 X133.190 Y175.032
G1 X133.515 Y174.981
G1 X133.644 Y175.258
G1 X133.748 Y175.574
G1 X133.851 Y175.889
G1 X133.955 Y176.204
G1 X134.059 Y176.519
G1 X134.317 Y176.616
G1 X134.648 Y176.608
G1 X134.980 Y176.601
G1 X135.309 Y176.568
G1 X135.593 Y176.407
G1 X135.815 Y176.162
G1 X135.956 Y175.865
G1 X135.988 Y175.537
G1 X135.966 Y175.206
G1 X135.939 Y174.875
G1 X135.916 Y174.544
G1 X135.889 Y174.214
M5   ; pen UP (one 90deg pulse of the one-way gear motor)
G4 P0.350   ; wait for the 90deg rotation to finish
G0 X133.736 Y173.917
M3   ; pen DOWN (one 90deg pulse of the one-way gear motor)
G4 P0.350   ; wait for the 90deg rotation to finish
G1 F900
G1 X133.765 Y174.233
G1 X133.791 Y174.550
G1 X133.817 Y174.866
G1 X133.839 Y175.183
G1 X133.881 Y175.498
G1 X133.969 Y175.802
G1 X134.045 Y176.110
G1 X134.053 Y176.426
G1 X133.944 Y176.721
G1 X133.844 Y177.020
M5   ; pen UP (one 90deg pulse of the one-way gear motor)
G4 P0.350   ; wait for the 90deg rotation to finish
G0 X132.943 Y176.961
M3   ; pen DOWN (one 90deg pulse of the one-way gear motor)
G4 P0.350   ; wait for the 90deg rotation to finish
G1 F900
G1 X132.636 Y176.843
G1 X132.308 Y176.814
G1 X131.978 Y176.811
G1 X131.648 Y176.808
G1 X131.318 Y176.813
G1 X130.996 Y176.872
G1 X130.748 Y177.083
M5   ; pen UP (one 90deg pulse of the one-way gear motor)
G4 P0.350   ; wait for the 90deg rotation to finish
G0 X130.748 Y177.083
M3   ; pen DOWN (one 90deg pulse of the one-way gear motor)
G4 P0.350   ; wait for the 90deg rotation to finish
G1 F900
G1 X130.804 Y177.414
G1 X130.881 Y177.739
G1 X131.081 Y178.005
G1 X131.318 Y178.243
G1 X131.607 Y178.407
G1 X131.940 Y178.440
G1 X132.276 Y178.443
G1 X132.612 Y178.424
G1 X132.931 Y178.321
M5   ; pen UP (one 90deg pulse of the one-way gear motor)
G4 P0.350   ; wait for the 90deg rotation to finish
G0 X128.313 Y177.089
M3   ; pen DOWN (one 90deg pulse of the one-way gear motor)
G4 P0.350   ; wait for the 90deg rotation to finish
G1 F900
G1 X128.173 Y176.939
M5   ; pen UP (one 90deg pulse of the one-way gear motor)
G4 P0.350   ; wait for the 90deg rotation to finish
G0 X128.319 Y174.760
M3   ; pen DOWN (one 90deg pulse of the one-way gear motor)
G4 P0.350   ; wait for the 90deg rotation to finish
G1 F900
G1 X128.317 Y175.101
G1 X128.316 Y175.442
G1 X128.315 Y175.783
G1 X128.315 Y176.124
G1 X128.314 Y176.464
G1 X128.297 Y176.804
G1 X128.211 Y177.133
G1 X128.086 Y177.450
G1 X128.012 Y177.781
G1 X127.977 Y178.121
G1 X127.947 Y178.460
G1 X127.914 Y178.799
G1 X127.885 Y179.139
M5   ; pen UP (one 90deg pulse of the one-way gear motor)
G4 P0.350   ; wait for the 90deg rotation to finish
G0 X144.000 Y179.153
M3   ; pen DOWN (one 90deg pulse of the one-way gear motor)
G4 P0.350   ; wait for the 90deg rotation to finish
G1 F900
G1 X143.997 Y178.815
G1 X143.993 Y178.478
G1 X143.990 Y178.141
G1 X143.987 Y177.803
G1 X143.986 Y177.466
G1 X143.985 Y177.128
G1 X143.982 Y176.791
G1 X143.979 Y176.453
G1 X143.977 Y176.116
G1 X143.976 Y175.779
G1 X143.974 Y175.441
G1 X143.971 Y175.104
G1 X143.972 Y174.766
G1 X144.030 Y174.436
G1 X144.211 Y174.157
G1 X144.498 Y173.987
M5   ; pen UP (one 90deg pulse of the one-way gear motor)
G4 P0.350   ; wait for the 90deg rotation to finish
G0 X143.967 Y174.458
M3   ; pen DOWN (one 90deg pulse of the one-way gear motor)
G4 P0.350   ; wait for the 90deg rotation to finish
G1 F900
G1 X143.635 Y174.394
G1 X143.309 Y174.307
G1 X143.008 Y174.154
G1 X142.690 Y174.048
G1 X142.353 Y174.031
G1 X142.036 Y174.119
G1 X141.850 Y174.396
G1 X141.758 Y174.721
G1 X141.724 Y175.057
G1 X141.718 Y175.395
G1 X141.750 Y175.731
G1 X141.856 Y176.051
G1 X142.030 Y176.340
G1 X142.269 Y176.575
G1 X142.581 Y176.693
G1 X142.919 Y176.712
G1 X143.256 Y176.693
G1 X143.587 Y176.626
G1 X143.923 Y176.597
M5   ; pen UP (one 90deg pulse of the one-way gear motor)
G4 P0.350   ; wait for the 90deg rotation to finish
G0 X145.671 Y176.981
M3   ; pen DOWN (one 90deg pulse of the one-way gear motor)
G4 P0.350   ; wait for the 90deg rotation to finish
G1 F900
G1 X145.669 Y176.654
G1 X145.668 Y176.327
G1 X145.666 Y175.999
G1 X145.663 Y175.672
G1 X145.635 Y175.346
G1 X145.570 Y175.026
G1 X145.530 Y174.701
M5   ; pen UP (one 90deg pulse of the one-way gear motor)
G4 P0.350   ; wait for the 90deg rotation to finish
G0 X145.663 Y175.332
M3   ; pen DOWN (one 90deg pulse of the one-way gear motor)
G4 P0.350   ; wait for the 90deg rotation to finish
G1 F900
G1 X145.977 Y175.237
G1 X146.303 Y175.206
G1 X146.632 Y175.199
G1 X146.959 Y175.173
G1 X147.280 Y175.105
G1 X147.606 Y175.112
G1 X147.785 Y175.356
G1 X147.739 Y175.681
G1 X147.693 Y176.006
G1 X147.589 Y176.316
G1 X147.428 Y176.602
G1 X147.293 Y176.901
G1 X147.236 Y177.222
G1 X147.344 Y177.522
G1 X147.594 Y177.733
M5   ; pen UP (one 90deg pulse of the one-way gear motor)
G4 P0.350   ; wait for the 90deg rotation to finish
G0 X149.817 Y176.875
M3   ; pen DOWN (one 90deg pulse of the one-way gear motor)
G4 P0.350   ; wait for the 90deg rotation to finish
G1 F900
G1 X150.147 Y176.853
G1 X150.468 Y176.776
G1 X150.796 Y176.741
G1 X151.127 Y176.740
G1 X151.458 Y176.739
G1 X151.788 Y176.724
G1 X152.096 Y176.608
M5   ; pen UP (one 90deg pulse of the one-way gear motor)
G4 P0.350   ; wait for the 90deg rotation to finish
G0 X152.251 Y178.201
M3   ; pen DOWN (one 90deg pulse of the one-way gear motor)
G4 P0.350   ; wait for the 90deg rotation to finish
G1 F900
G1 X151.997 Y178.401
G1 X151.684 Y178.514
G1 X151.363 Y178.530
G1 X151.050 Y178.547
G1 X150.891 Y178.258
G1 X150.747 Y177.968
G1 X150.705 Y177.642
G1 X150.634 Y177.321
G1 X150.629 Y176.988
G1 X150.606 Y176.657
G1 X150.631 Y176.326
G1 X150.630 Y175.994
G1 X150.629 Y175.661
G1 X150.628 Y175.329
G1 X150.627 Y174.996
G1 X150.647 Y174.665
G1 X150.639 Y174.332
G1 X150.651 Y174.002
G1 X150.713 Y173.682
M5   ; pen UP (one 90deg pulse of the one-way gear motor)
G4 P0.350   ; wait for the 90deg rotation to finish
G0 X155.568 Y173.702
M3   ; pen DOWN (one 90deg pulse of the one-way gear motor)
G4 P0.350   ; wait for the 90deg rotation to finish
G1 F900
G1 X155.508 Y174.031
G1 X155.498 Y174.370
G1 X155.509 Y174.711
G1 X155.491 Y175.050
G1 X155.494 Y175.391
G1 X155.497 Y175.731
G1 X155.501 Y176.072
G1 X155.504 Y176.413
G1 X155.485 Y176.752
G1 X155.507 Y177.091
G1 X155.515 Y177.432
G1 X155.581 Y177.762
G1 X155.632 Y178.095
G1 X155.771 Y178.394
G1 X155.926 Y178.695
G1 X156.239 Y178.686
G1 X156.566 Y178.677
G1 X156.884 Y178.558
G1 X157.142 Y178.349
M5   ; pen UP (one 90deg pulse of the one-way gear motor)
G4 P0.350   ; wait for the 90deg rotation to finish
G0 X158.364 Y177.397
M3   ; pen DOWN (one 90deg pulse of the one-way gear motor)
G4 P0.350   ; wait for the 90deg rotation to finish
G1 F900
G1 X158.368 Y177.059
G1 X158.373 Y176.721
G1 X158.402 Y176.385
G1 X158.479 Y176.056
G1 X158.594 Y175.740
G1 X158.843 Y175.515
G1 X159.118 Y175.319
G1 X159.441 Y175.237
G1 X159.779 Y175.236
G1 X160.117 Y175.240
G1 X160.453 Y175.266
G1 X160.763 Y175.393
M5   ; pen UP (one 90deg pulse of the one-way gear motor)
G4 P0.350   ; wait for the 90deg rotation to finish
G0 X161.869 Y174.730
M3   ; pen DOWN (one 90deg pulse of the one-way gear motor)
G4 P0.350   ; wait for the 90deg rotation to finish
G1 F900
G1 X161.800 Y175.058
G1 X161.743 Y175.387
G1 X161.713 Y175.721
G1 X161.690 Y176.056
G1 X161.730 Y176.388
G1 X161.788 Y176.719
G1 X161.863 Y177.045
G1 X162.035 Y177.328
G1 X162.319 Y177.498
G1 X162.648 Y177.559
G1 X162.983 Y177.557
G1 X163.312 Y177.492
G1 X163.567 Y177.361
G1 X163.617 Y177.029
G1 X163.666 Y176.697
G1 X163.716 Y176.365
G1 X163.765 Y176.033
G1 X163.815 Y175.701
G1 X163.864 Y175.369
G1 X163.914 Y175.037
G1 X163.963 Y174.705
G1 X164.096 Y174.445
G1 X164.401 Y174.527
G1 X164.652 Y174.741
G1 X164.958 Y174.872
G1 X165.290 Y174.875
G1 X165.622 Y174.825
G1 X165.957 Y174.810
G1 X166.292 Y174.815
G1 X166.610 Y174.915
G1 X166.871 Y175.124
G1 X167.069 Y175.314
G1 X167.282 Y175.055
G1 X167.540 Y174.870
G1 X167.830 Y174.958
G1 X167.827 Y175.294
G1 X167.825 Y175.630
G1 X167.823 Y175.965
G1 X167.821 Y176.301
G1 X167.841 Y176.635
G1 X167.907 Y176.964
G1 X168.042 Y177.266
G1 X168.246 Y177.532
G1 X168.496 Y177.753
G1 X168.809 Y177.867
G1 X169.143 Y177.868
G1 X169.423 Y177.694
G1 X169.587 Y177.404
G1 X169.705 Y177.090
G1 X169.820 Y176.774
G1 X169.921 Y176.454
G1 X169.947 Y176.122
G1 X169.950 Y175.786
G1 X169.967 Y175.451
G1 X169.980 Y175.116
G1 X169.998 Y174.780
M5   ; pen UP (one 90deg pulse of the one-way gear motor)
G4 P0.350   ; wait for the 90deg rotation to finish
G0 X170.402 Y177.330
M3   ; pen DOWN (one 90deg pulse of the one-way gear motor)
G4 P0.350   ; wait for the 90deg rotation to finish
G1 F900
G1 X170.724 Y177.330
G1 X171.046 Y177.329
G1 X171.367 Y177.346
G1 X171.685 Y177.389
G1 X172.002 Y177.444
G1 X172.320 Y177.491
G1 X172.637 Y177.548
G1 X172.952 Y177.608
M5   ; pen UP (one 90deg pulse of the one-way gear motor)
G4 P0.350   ; wait for the 90deg rotation to finish
G0 X171.537 Y179.305
M3   ; pen DOWN (one 90deg pulse of the one-way gear motor)
G4 P0.350   ; wait for the 90deg rotation to finish
G1 F900
G1 X171.537 Y178.962
G1 X171.536 Y178.620
G1 X171.535 Y178.277
G1 X171.538 Y177.935
G1 X171.561 Y177.593
G1 X171.597 Y177.253
G1 X171.584 Y176.911
G1 X171.547 Y176.571
G1 X171.534 Y176.229
G1 X171.531 Y175.886
G1 X171.536 Y175.544
G1 X171.578 Y175.205
G1 X171.718 Y174.895
G1 X171.999 Y174.710
G1 X172.336 Y174.690
G1 X172.665 Y174.782
M5   ; pen UP (one 90deg pulse of the one-way gear motor)
G4 P0.350   ; wait for the 90deg rotation to finish
G0 X179.671 Y175.004
M3   ; pen DOWN (one 90deg pulse of the one-way gear motor)
G4 P0.350   ; wait for the 90deg rotation to finish
G1 F900
G1 X179.343 Y174.951
G1 X179.053 Y174.789
G1 X178.758 Y174.634
G1 X178.431 Y174.591
G1 X178.116 Y174.692
G1 X177.894 Y174.938
G1 X177.756 Y175.240
G1 X177.671 Y175.563
G1 X177.602 Y175.889
G1 X177.585 Y176.223
G1 X177.634 Y176.551
G1 X177.791 Y176.846
G1 X177.946 Y177.141
G1 X178.152 Y177.404
G1 X178.388 Y177.639
G1 X178.689 Y177.783
G1 X179.013 Y177.859
G1 X179.346 Y177.870
G1 X179.645 Y177.740
G1 X179.674 Y177.414
G1 X179.646 Y177.082
G1 X179.648 Y176.748
G1 X179.652 Y176.414
G1 X179.657 Y176.080
G1 X179.661 Y175.746
G1 X179.668 Y175.412
G1 X179.707 Y175.081
G1 X179.857 Y174.786
G1 X180.140 Y174.623
G1 X180.457 Y174.518
G1 X180.744 Y174.602
G1 X180.795 Y174.932
G1 X180.846 Y175.262
G1 X180.897 Y175.593
G1 X180.948 Y175.923
G1 X180.998 Y176.253
G1 X181.049 Y176.583
G1 X181.100 Y176.913
G1 X181.151 Y177.244
G1 X181.202 Y177.574
G1 X181.281 Y177.265
G1 X181.273 Y176.931
G1 X181.307 Y176.599
G1 X181.335 Y176.266
G1 X181.367 Y175.933
G1 X181.440 Y175.609
G1 X181.576 Y175.306
G1 X181.844 Y175.207
G1 X182.171 Y175.167
G1 X182.502 Y175.166
G1 X182.809 Y175.291
M5   ; pen UP (one 90deg pulse of the one-way gear motor)
G4 P0.350   ; wait for the 90deg rotation to finish
G0 X183.247 Y174.831
M3   ; pen DOWN (one 90deg pulse of the one-way gear motor)
G4 P0.350   ; wait for the 90deg rotation to finish
G1 F900
G1 X183.123 Y175.145
G1 X183.010 Y175.458
G1 X183.003 Y175.793
G1 X183.025 Y176.132
G1 X183.055 Y176.469
G1 X183.055 Y176.806
G1 X183.012 Y177.138
G1 X183.047 Y177.473
G1 X183.116 Y177.804
M5   ; pen UP (one 90deg pulse of the one-way gear motor)
G4 P0.350   ; wait for the 90deg rotation to finish
G0 X184.594 Y177.157
M3   ; pen DOWN (one 90deg pulse of the one-way gear motor)
G4 P0.350   ; wait for the 90deg rotation to finish
G1 F900
G1 X184.927 Y177.196
G1 X185.261 Y177.235
G1 X185.594 Y177.279
G1 X185.897 Y177.417
G1 X186.229 Y177.449
G1 X186.564 Y177.470
G1 X186.873 Y177.594
M5   ; pen UP (one 90deg pulse of the one-way gear motor)
G4 P0.350   ; wait for the 90deg rotation to finish
G0 X185.877 Y177.448
M3   ; pen DOWN (one 90deg pulse of the one-way gear motor)
G4 P0.350   ; wait for the 90deg rotation to finish
G1 F900
G1 X185.732 Y177.304
M5   ; pen UP (one 90deg pulse of the one-way gear motor)
G4 P0.350   ; wait for the 90deg rotation to finish
G0 X185.823 Y175.151
M3   ; pen DOWN (one 90deg pulse of the one-way gear motor)
G4 P0.350   ; wait for the 90deg rotation to finish
G1 F900
G1 X185.830 Y175.487
G1 X185.837 Y175.824
G1 X185.845 Y176.160
G1 X185.854 Y176.496
G1 X185.862 Y176.832
G1 X185.853 Y177.168
G1 X185.775 Y177.494
G1 X185.657 Y177.809
G1 X185.591 Y178.138
G1 X185.565 Y178.473
G1 X185.544 Y178.809
G1 X185.519 Y179.144
G1 X185.498 Y179.480
M5   ; pen UP (one 90deg pulse of the one-way gear motor)
G4 P0.350   ; wait for the 90deg rotation to finish
G0 X187.977 Y179.796
M3   ; pen DOWN (one 90deg pulse of the one-way gear motor)
G4 P0.350   ; wait for the 90deg rotation to finish
G1 F900
G1 X188.049 Y179.480
G1 X188.058 Y179.154
G1 X188.061 Y178.827
G1 X188.065 Y178.501
G1 X188.153 Y178.187
G1 X188.214 Y177.868
G1 X188.274 Y177.547
G1 X188.311 Y177.223
G1 X188.295 Y176.897
G1 X188.207 Y176.583
G1 X188.150 Y176.262
G1 X188.127 Y175.936
G1 X188.139 Y175.610
G1 X188.191 Y175.288
G1 X188.187 Y174.963
M5   ; pen UP (one 90deg pulse of the one-way gear motor)
G4 P0.350   ; wait for the 90deg rotation to finish
G0 X188.422 Y177.686
M3   ; pen DOWN (one 90deg pulse of the one-way gear motor)
G4 P0.350   ; wait for the 90deg rotation to finish
G1 F900
G1 X188.755 Y177.686
G1 X189.089 Y177.686
G1 X189.417 Y177.724
G1 X189.740 Y177.700
G1 X189.990 Y177.483
G1 X190.136 Y177.186
G1 X190.234 Y176.868
G1 X190.276 Y176.538
G1 X190.328 Y176.209
G1 X190.347 Y175.878
G1 X190.340 Y175.544
G1 X190.329 Y175.211
G1 X190.287 Y174.883
G1 X190.427 Y174.672
G1 X190.748 Y174.581
G1 X191.068 Y174.489
G1 X191.388 Y174.397
G1 X191.709 Y174.305
G1 X192.038 Y174.271
G1 X192.363 Y174.333
G1 X192.685 Y174.418
G1 X193.007 Y174.504
G1 X193.329 Y174.590
G1 X193.651 Y174.675
G1 X193.693 Y174.987
G1 X193.707 Y175.320
G1 X193.721 Y175.653
G1 X193.735 Y175.986
G1 X193.750 Y176.319
G1 X193.762 Y176.652
G1 X193.731 Y176.982
G1 X193.597 Y177.285
G1 X193.390 Y177.546
G1 X193.116 Y177.724
G1 X192.787 Y177.773
G1 X192.454 Y177.775
G1 X192.132 Y177.705
G1 X191.892 Y177.486
G1 X191.801 Y177.167
G1 X191.777 Y176.835
G1 X191.728 Y176.506
G1 X191.638 Y176.185
G1 X191.597 Y175.854
G1 X191.581 Y175.521
G1 X191.572 Y175.188
G1 X191.625 Y174.861
G1 X191.768 Y174.565
G1 X192.055 Y174.411
G1 X192.386 Y174.391
G1 X192.714 Y174.446
G1 X193.036 Y174.533
G1 X193.355 Y174.628
G1 X193.684 Y174.675
G1 X194.017 Y174.669
G1 X194.324 Y174.554
G1 X194.621 Y174.404
G1 X194.919 Y174.253
G1 X195.231 Y174.275
G1 X195.545 Y174.386
G1 X195.858 Y174.502
G1 X195.968 Y174.764
G1 X195.979 Y175.097
G1 X195.992 Y175.430
G1 X196.005 Y175.763
G1 X196.019 Y176.096
G1 X196.029 Y176.430
G1 X196.060 Y176.761
G1 X196.199 Y177.056
G1 X196.455 Y177.268
G1 X196.733 Y177.452
G1 X197.024 Y177.614
G1 X197.350 Y177.664
G1 X197.679 Y177.616
G1 X198.007 Y177.554
M5   ; pen UP (one 90deg pulse of the one-way gear motor)
G4 P0.350   ; wait for the 90deg rotation to finish
G0 X199.551 Y177.110
M3   ; pen DOWN (one 90deg pulse of the one-way gear motor)
G4 P0.350   ; wait for the 90deg rotation to finish
G1 F900
G1 X199.356 Y176.832
G1 X199.328 Y176.498
G1 X199.428 Y176.171
G1 X199.574 Y175.862
G1 X199.719 Y175.551
G1 X199.848 Y175.234
G1 X199.948 Y174.907
G1 X200.000 Y174.569
G1 X199.979 Y174.228
G1 X199.813 Y173.936
G1 X199.506 Y173.802
G1 X199.165 Y173.781
G1 X198.824 Y173.812
G1 X198.498 Y173.914
G1 X198.197 Y174.076
M5   ; pen UP (one 90deg pulse of the one-way gear motor)
G4 P0.350   ; wait for the 90deg rotation to finish
G0 X166.422 Y177.988
M3   ; pen DOWN (one 90deg pulse of the one-way gear motor)
G4 P0.350   ; wait for the 90deg rotation to finish
G1 F900
G1 X166.101 Y177.957
G1 X165.813 Y177.814
G1 X165.528 Y177.661
G1 X165.234 Y177.527
G1 X164.998 Y177.311
M5   ; pen UP (one 90deg pulse of the one-way gear motor)
G4 P0.350   ; wait for the 90deg rotation to finish
G0 X164.998 Y177.311
M3   ; pen DOWN (one 90deg pulse of the one-way gear motor)
G4 P0.350   ; wait for the 90deg rotation to finish
G1 F900
G1 X165.006 Y176.979
G1 X165.015 Y176.647
G1 X165.024 Y176.314
G1 X165.033 Y175.982
G1 X165.042 Y175.650
G1 X165.050 Y175.317
G1 X165.059 Y174.985
M5   ; pen UP (one 90deg pulse of the one-way gear motor)
G4 P0.350   ; wait for the 90deg rotation to finish
G0 X160.740 Y177.282
M3   ; pen DOWN (one 90deg pulse of the one-way gear motor)
G4 P0.350   ; wait for the 90deg rotation to finish
G1 F900
G1 X160.449 Y177.160
G1 X160.134 Y177.129
G1 X159.816 Y177.125
G1 X159.498 Y177.121
G1 X159.181 Y177.125
G1 X158.873 Y177.189
G1 X158.643 Y177.401
M5   ; pen UP (one 90deg pulse of the one-way gear motor)
G4 P0.350   ; wait for the 90deg rotation to finish
G0 X158.643 Y177.401
M3   ; pen DOWN (one 90deg pulse of the one-way gear motor)
G4 P0.350   ; wait for the 90deg rotation to finish
G1 F900
G1 X158.693 Y177.727
G1 X158.757 Y178.050
G1 X158.934 Y178.324
G1 X159.156 Y178.569
G1 X159.427 Y178.750
G1 X159.752 Y178.797
G1 X160.082 Y178.803
G1 X160.411 Y178.785
G1 X160.723 Y178.679
M5   ; pen UP (one 90deg pulse of the one-way gear motor)
G4 P0.350   ; wait for the 90deg rotation to finish
G0 X156.974 Y176.709
M3   ; pen DOWN (one 90deg pulse of the one-way gear motor)
G4 P0.350   ; wait for the 90deg rotation to finish
G1 F900
G1 X156.667 Y176.830
G1 X156.337 Y176.847
G1 X156.005 Y176.850
G1 X155.673 Y176.854
G1 X155.345 Y176.892
G1 X155.024 Y176.974
G1 X154.694 Y177.000
M5   ; pen UP (one 90deg pulse of the one-way gear motor)
G4 P0.350   ; wait for the 90deg rotation to finish
G0 X10.000 Y180.000   ; park
M2
